id;nom;adr;cp;vil;tel;uga;dec;c24c1;c24c2;cib_dp;cib_dso;nv22;ddvs;ddv;rdv;com;circ_ca_cma_fev23;ul_ca_cma_fev23;ul_ca_rank_fev23;circ_ca_cma_juin23;ul_ca_cma_juin23;ul_ca_rank_juin23;circ_ca_cma_sep23;ul_ca_cma_sep23;ul_ca_rank_sep23;circ_ca_cma_fev24;ul_ca_cma_fev24;ul_ca_rank_fev24;gpt;contrat_23;lat;lon
1;PHARMACIE ZANEA;13 RUE DU COMMERCE;75015;PARIS;01 45 75 33 35;75GRE;1;3;;1;1;0;[Timestamp('2024-01-10 09:30:00')];2024-01-08 09:30:00;;;2241.0;4894.0;3;1226.0;5015.0;5;775.0;5189.0;2;1889.93;5479.48;1.0;APOTHICAL;;48.8483638;2.2972043
2;PHARMACIE FELLOUS;9 RUE GREFFULHE;92300;LEVALLOIS PERRET;01 47 58 75 81;92LEV;2;3;;1;1;2;[Timestamp('2023-11-16 10:30:00')];2023-11-14 10:30:00;;;976.0;5189.0;2;1533.0;6073.0;1;1996.0;5647.0;1;2230.0;5208.55;2.0;SUPRAPHARM;CA>7500 STAR PLUS;48.8940611;2.276556
3;PHARMACIE DE LA PORTE DE SAINT CLOUD;122 BOULEVARD MURAT;75016;PARIS;01 42 88 74 16;75AUT;3;3;;1;1;2;[];2022-05-31 00:00:00;;;1550.0;4642.0;4;1946.0;5054.0;4;2001.0;4714.0;4;2447.43;4267.78;3.0;ELSIE;ELSIE VIP;48.8372922;2.2582987
4;PHARMACIE EXELMANS;77 BOULEVARD EXELMANS;75016;PARIS;01 46 51 23 92;75AUT;2;3;;1;1;2;[];2022-06-07 00:00:00;;;1851.0;4058.0;7;2202.0;3820.0;10;2224.0;4541.0;5;3294.83;3851.53;4.0;CENTRALE DES PHARMACIENS;CA>7500 PARTENAIRE PLUS;48.8433062;2.2594422
5;PHARMACIE DE LA PORTE MAILLOT;68 AVENUE DE LA GRANDE ARMEE;75017;PARIS;01 45 74 17 31;75TER;3;3;;1;1;0;[Timestamp('2023-11-14 11:30:00')];2023-11-12 11:30:00;;;747.0;5432.0;1;992.0;5659.0;2;792.0;4889.0;3;869.72;3766.05;5.0;NORCAP;CA<7500 TOP24;48.877227;2.2853859
6;PHARMACIE SEGUIN;141 RUE DE LA TOUR;75116;PARIS;01 45 04 32 33;75PAS;2;3;;1;1;1;[];2022-05-28 00:00:00;;;1979.0;3652.0;14;2040.0;3320.0;15;1505.0;3136.0;17;1889.93;3486.56;6.0;;CA>7500 STAR PLUS COOP;48.8637349;2.272673
7;PHARMACIE DE NEUILLY;43 RUE DE CHARTRES;92200;NEUILLY SUR SEINE;01 46 24 03 24;92NEU;2;3;;1;1;2;[];2022-05-23 00:00:00;;;1550.0;3686.0;12;2236.0;4053.0;8;1065.0;4392.0;7;2542.21;3469.63;7.0;APRIUM;LEADER SANTE/ APRIUM STAR PLUS;48.8822117;2.2772812
8;PHARMACIE DU MARECHAL JUIN;7 PLACE DU MARECHAL JUIN;75017;PARIS;01 47 63 34 39;75PER;4;3;;1;1;2;[Timestamp('2023-11-21 15:00:00')];2023-09-18 15:45:00;;;1143.0;4074.0;6;1154.0;4766.0;6;1154.0;4112.0;9;1449.52;3429.94;8.0;APRIUM;;48.8844425;2.296847
9;PHARMACIE AOUIZERAT;43 RUE D AUTEUIL;75016;PARIS;01 42 88 07 96;75AUT;2;3;;1;1;2;[Timestamp('2023-12-07 10:00:00')];2023-11-06 09:00:00;;;1561.0;3750.0;11;1182.0;3434.0;13;1739.0;3539.0;13;1672.5;3302.67;9.0;IPHARM;;48.847711;2.2653034
10;PHARMACIE RONCIN;25 27 RUE JOUFFROY D ABBANS;75017;PARIS;01 47 63 56 80;75PER;3;0;;1;1;0;[];;;;825.0;3461.0;15;864.0;3667.0;11;775.0;3295.0;15;774.93;3210.08;10.0;LEADER SANTE;;48.8851125;2.3071409
11;PHARMACIE DES 5K;22 B RUE D ALSACE;92300;LEVALLOIS PERRET;01 47 39 41 46;92LEV;9;0;;0;0;0;[];;;;190.0;963.0;0;479.0;1907.0;66;479.0;2849.0;22;373.53;3110.95;11.0;COS 500;;48.8911536;2.2952809
12;PHARMACIE LUPORSI;72 RUE ANATOLE FRANCE;92300;LEVALLOIS PERRET;01 47 57 45 55;92LEV;2;3;;1;1;0;[];;;;334.0;3953.0;9;1115.0;5449.0;3;1115.0;4441.0;6;1115.0;3075.2;12.0;APRIUM;;48.8919289;2.2853006
13;PHARMACIE DE LA TERRASSE;35 RUE DE LEVIS;75017;PARIS;01 47 63 24 12;75PER;3;3;;1;1;0;[];;;;1238.0;2852.0;24;1461.0;2485.0;33;1784.0;2636.0;34;1672.5;3020.6;13.0;IPHARM;;48.8827505;2.3148008
14;PHARMACIE BASIRE;143 RUE DE LA POMPE;75116;PARIS;01 45 05 42 88;75TRO;2;3;;1;1;2;[];2022-04-18 00:00:00;;;847.0;2463.0;40;1985.0;3017.0;19;1115.0;2450.0;43;1672.5;3005.35;14.0;APRIUM UM;;48.8681298;2.2811759
15;PHARMACIE CENTRALE DE PASSY;38 RUE DE PASSY;75016;PARIS;01 42 88 21 68;75PAS;4;3;;1;0;2;[];2022-05-10 00:00:00;;;914.0;2343.0;44;1087.0;2313.0;42;1104.0;2654.0;33;1087.14;3002.55;15.0;COS 500;;48.8579528;2.2806469
16;PHARMACIE BRAITMAN BOUBLIL;1 PLACE VICTOR HUGO;75116;PARIS;01 45 00 71 96;75TRO;2;3;;1;1;0;[];;;;680.0;2232.0;49;1037.0;2704.0;25;1037.0;3544.0;12;557.5;3001.23;16.0;APRIUM;;48.8697287;2.2860208
17;PHARMACIE BROVILLE;47 RUE BALARD;75015;PARIS;01 45 57 97 51;75GRE;5;3;;1;0;2;[Timestamp('2023-09-13 15:15:00')];2023-09-11 15:15:00;;;1985.0;2298.0;45;2944.0;2735.0;24;3122.0;3017.0;20;3345.0;2956.48;17.0;IPHARM;;48.8418667;2.2778659
18;GRANDE PHARMACIE WAGRAM;239 RUE DU FAUBOURG SAINT HONORE;75008;PARIS;01 42 67 27 60;75TER;2;3;;1;1;0;[];;;;268.0;3114.0;20;151.0;2898.0;22;217.0;2481.0;40;724.76;2954.37;18.0;ELSIE;ELSIE VIP PLUS;48.8775335;2.2984221
19;PHARMACIE BAYEN;45 RUE BAYEN;75017;PARIS;01 45 74 24 41;75TER;6;0;;1;1;0;[];;;;915.0;2723.0;26;1256.0;4759.0;7;1323.0;4324.0;8;1518.07;2943.84;19.0;PHARMACTIV;;48.8816761;2.292172
20;PHARMACIE COHEN MARTIN;82 RUE BAUDIN;92300;LEVALLOIS PERRET;01 42 70 95 95;92LEV;7;3;;1;0;0;[Timestamp('2023-10-11 17:00:00')];2023-10-09 17:00:00;;;106.0;3322.0;18;;3245.0;16;;3550.0;11;0.0;2891.49;20.0;WELL & WELL;CA<7500 STAR;48.8973333;2.2829721
21;PHARMACIE BROSSOLETTE;26 RUE PIERRE BROSSOLETTE;92300;LEVALLOIS PERRET;01 47 37 04 05;92LEV;5;3;;1;0;0;[];;;;870.0;2876.0;23;535.0;2342.0;40;1043.0;2462.0;41;869.71;2885.31;21.0;;CA<7500 TOP24;48.8954988;2.2927591
22;PHARMACIE AMIEL HANOUNA;22 RUE CHAUVEAU;92200;NEUILLY SUR SEINE;01 46 24 64 48;92NEU;6;3;;1;1;0;[Timestamp('2023-12-15 09:30:00')];2023-12-13 09:30:00;;;758.0;2511.0;38;424.0;2114.0;50;424.0;3031.0;19;0.0;2874.13;22.0;;CA<7500 TOP24;48.8907092;2.2742679
23;PHARMACIE HAHNEMANN;347 RUE DE VAUGIRARD;75015;PARIS;01 56 08 30 80;75VAU;3;0;;1;1;2;[];2022-04-11 00:00:00;;;546.0;4298.0;5;574.0;3483.0;12;385.0;3156.0;16;507.33;2837.86;23.0;;CA>7500 PARTENAIRE PLUS;48.8371001;2.2963619
24;PHARMACIE LOURMEL;105 AVENUE FELIX FAURE;75015;PARIS;01 45 57 45 45;75GRE;3;3;;1;1;2;[];2022-03-30 00:00:00;;;1394.0;3664.0;13;652.0;2944.0;20;652.0;2056.0;55;652.29;2797.35;24.0;APRIUM;;48.8389689;2.2828942
25;PHARMACIE DU BIEN ETRE;36 RUE DE LA POMPE;75116;PARIS;01 45 04 14 89;75PAS;4;3;;1;1;0;[Timestamp('2023-07-20 10:30:00')];2023-07-18 10:30:00;;;792.0;2890.0;21;273.0;2531.0;30;84.0;2621.0;35;83.63;2756.39;25.0;EXCEL PHARMA;CA<7500 STAR;48.8611024;2.2754597
26;PHARMACIE LE MIRE;10 PLACE RAOUL DAUTRY;75015;PARIS;01 43 21 42 42;75MNP;2;3;;1;1;0;[];;;;524.0;2879.0;22;84.0;2494.0;32;167.0;2692.0;30;334.52;2732.55;26.0;PHARMABEST;;48.84175115;2.32048104917992
27;PHARMACIE DE L ECOLE DE GUERRE;57 B AVENUE DE LA MOTTE PICQUET;75015;PARIS;01 47 34 62 04;75GRE;7;0;;1;1;2;[];2022-05-04 00:00:00;;;1661.0;2004.0;67;217.0;1709.0;90;435.0;2549.0;36;1159.62;2702.86;27.0;;CA<7500 PARTENAIRE;48.8489824;2.2979718
28;PHARMACIE NIEL;16 AVENUE NIEL;75017;PARIS;01 47 54 00 39;75TER;3;3;;1;0;2;[Timestamp('2023-11-02 10:00:00')];2023-10-31 10:00:00;;;84.0;4049.0;8;167.0;3215.0;17;418.0;3108.0;18;501.78;2688.13;28.0;IPHARM;;48.8800843;2.2951544
29;PHARMACIE DE LA POMPE;66 RUE DE LA POMPE;75116;PARIS;01 45 04 73 46;75PAS;3;3;;1;1;0;[];;;;1901.0;2428.0;41;1093.0;2556.0;29;1115.0;2750.0;26;557.5;2638.54;29.0;COS 500;;48.8631773;2.2766324
30;PHARMACIE DE BRETEUIL;6 PLACE DE BRETEUIL;75015;PARIS;01 47 34 14 85;75INV;5;3;;1;0;0;[];;;;758.0;2259.0;47;619.0;1864.0;71;764.0;2009.0;58;1003.51;2589.39;30.0;;CA<7500 STAR;48.8472355;2.3107478
31;PHARMACIE MELQUIOND;52 RUE D AUTEUIL;75016;PARIS;01 42 88 27 38;75AUT;4;3;;1;1;2;[];2022-06-07 00:00:00;;;1946.0;2832.0;25;1817.0;2455.0;37;1817.0;2455.0;42;2034.88;2552.58;31.0;APRIUM;;48.8480683;2.2626834
32;PHARMACIE COURCELLES DEMOURS;162 RUE DE COURCELLES;75017;PARIS;01 47 63 60 67;75PER;4;3;;1;1;1;[Timestamp('2023-11-08 12:00:00')];2023-09-18 14:45:00;;;931.0;3126.0;19;814.0;2458.0;36;1031.0;2489.0;39;1087.15;2526.02;32.0;IPHARM;;48.8832923;2.2991265
33;PHARMACIE DU PARC;4 AVENUE SAINTE FOY;92200;NEUILLY SUR SEINE;01 46 24 10 99;92NEU;4;3;;1;1;2;[Timestamp('2024-02-19 09:00:00')];2024-02-17 09:00:00;;;689.0;1754.0;81;624.0;2433.0;38;580.0;1705.0;80;507.33;2451.77;33.0;EXCEL PHARMA;CA>7500 PARTENAIRE PLUS;48.8848732;2.2682999
34;PHARMACIE DU PARC;3 B RUE LOUISE MICHEL;92300;LEVALLOIS PERRET;01 47 57 40 46;92LEV;8;0;;1;0;0;[Timestamp('2024-02-19 09:00:00')];2024-02-17 09:00:00;;;552.0;1212.0;0;435.0;1500.0;111;689.0;1500.0;100;507.33;2451.77;33.0;WELL & WELL;;48.8874595;2.2849457
35;GRANDE PHARMACIE DU COMMERCE;89 RUE DU COMMERCE;75015;PARIS;01 48 28 43 50;75GRE;4;3;;1;1;2;[];2022-06-08 00:00:00;;;335.0;3820.0;10;229.0;3373.0;14;312.0;3367.0;14;250.89;2375.41;34.0;IPHARM;;48.8442222;2.2935652
36;PHARMACIE VASRAM;12 RUE LOUISE MICHEL;92300;LEVALLOIS PERRET;01 47 57 57 36;92LEV;7;3;;1;0;0;[];;;;-11.0;2278.0;46;-11.0;2530.0;31;-11.0;1918.0;62;0.0;2321.32;35.0;PYXIS;CA<7500 TOP24;48.8877424;2.2856758
37;PHARMACIE DU ROULE;71 AVENUE FRANKLIN DELANO ROOSEVELT;75008;PARIS;01 43 59 17 46;75TER;3;3;;1;1;0;[];;;;714.0;2082.0;58;334.0;2050.0;59;624.0;1858.0;66;434.86;2318.67;36.0;COS 650;;48.8725589;2.3098007
38;PHARMACIE DU ROULE;8 PLACE DU GENERAL GOURAUD;92200;NEUILLY SUR SEINE;01 46 24 06 62;92NEU;5;3;;1;1;0;[];;;;1193.0;1665.0;91;524.0;1834.0;74;524.0;1651.0;82;434.86;2318.67;36.0;LEADER SANTE;;48.8861444;2.2617537
39;PHARMACIE CONSEIL PASSY;7 RUE DE L ALBONI;75016;PARIS;01 42 88 20 34;75PAS;3;3;;1;1;0;[];;;;1121.0;2615.0;31;1366.0;2942.0;21;987.0;2740.0;27;1377.05;2311.37;37.0;;CA<7500 STAR;48.8582156;2.2849391
40;PHARMACIE ANGLAISE;62 AVENUE DES CHAMPS ELYSEES;75008;PARIS;01 43 59 82 30;75TER;2;3;;1;1;2;[];2022-05-02 00:00:00;;;1483.0;1954.0;71;1137.0;1863.0;72;602.0;1783.0;69;942.19;2304.37;38.0;APRIUM UM;;48.8707851;2.3055599
41;PHARMACIE BARBELET POULLE;40 BOULEVARD PASTEUR;75015;PARIS;01 43 20 97 89;75MNP;8;0;;1;1;2;[];2022-05-04 00:00:00;;;758.0;1719.0;85;368.0;1782.0;79;385.0;2010.0;57;301.06;2290.32;39.0;;CA<7500 STAR;48.8418444;2.3130165
42;PHARMACIE PHARMAGREEN BOUCICAUT;95 RUE DE LA CONVENTION;75015;PARIS;01 45 54 29 19;75GRE;8;3;;1;0;0;[];;;;580.0;2053.0;61;580.0;1960.0;64;390.0;2315.0;45;217.43;2277.33;40.0;LEADER SANTE;;48.8418017;2.2866098
43;PHARMACIE DAMBREVILLE;101 AVENUE MOZART;75016;PARIS;01 42 88 53 33;75AUT;6;3;;1;0;0;[];2023-06-26 16:00:00;;;474.0;2694.0;27;440.0;2305.0;43;251.0;1800.0;68;585.39;2239.4;41.0;CENTRALE DES PHARMACIENS;CA<7500 TOP24;48.8515906;2.2678256
44;PHARMACIE BERTHIER;134 136 BOULEVARD BERTHIER;75017;PARIS;01 43 80 58 61;75PER;4;3;;1;0;0;[];;;;295.0;2213.0;52;273.0;2207.0;48;440.0;2529.0;38;418.14;2229.08;42.0;LEADER SANTE;LEADER SANTE/ APRIUM PARTENAIRE;48.8930985;2.3101471
45;PHARMACIE LAFARGE;25 RUE DU BOIS DE BOULOGNE;92200;NEUILLY SUR SEINE;01 46 24 61 24;92NEU;6;3;;1;0;0;[Timestamp('2024-02-15 08:30:00')];2024-02-13 08:30:00;;;914.0;2577.0;34;1282.0;2026.0;62;1282.0;1486.0;102;1115.0;2184.66;43.0;EXCEL PHARMA;CA<7500 TOP24;48.8811842;2.2561262
46;PHARMACIE ZANA;55 AVENUE DE SUFFREN;75007;PARIS;01 47 34 50 07;75GRE;5;0;;1;0;0;[];;;;1974.0;1669.0;90;1528.0;1589.0;103;1210.0;1536.0;94;1282.26;2175.9;44.0;APRIUM;;48.8528957;2.2984326
47;PHARMACIE DU MARCHE DE PASSY;2 PLACE DE PASSY;75016;PARIS;01 42 88 01 76;75PAS;5;3;;1;0;0;[];2023-11-27 14:30:00;;;357.0;3366.0;16;334.0;2764.0;23;552.0;2410.0;44;819.54;2172.22;45.0;LEADER SANTE;;48.857809;2.2774307
48;PHARMACIE PERETTI;110 AVENUE ACHILLE PERETTI;92200;NEUILLY SUR SEINE;01 46 24 02 82;92NEU;4;3;;1;1;0;[Timestamp('2024-02-22 08:30:00')];2024-02-20 08:30:00;;;502.0;2612.0;32;-10.0;2472.0;34;369.0;1775.0;71;0.0;2138.36;46.0;PHARMACTIV;CA<7500 PARTENAIRE;48.8851639;2.2664997
49;GRANDE PHARMACIE DOUMER PASSY;83 AVENUE PAUL DOUMER;75116;PARIS;01 45 25 20 54;75PAS;2;3;;1;1;2;[Timestamp('2023-11-29 15:30:00')];2023-11-27 15:30:00;;;1004.0;2631.0;29;669.0;2337.0;41;502.0;2280.0;46;457.15;2135.0;47.0;;CA<7500 TOP24;48.8589279;2.2768284
50;PHARMACIE PHARMAVANCE;315 RUE DE VAUGIRARD;75015;PARIS;01 48 28 45 85;75MNP;3;0;;1;1;0;[];;;;1048.0;2480.0;39;334.0;2251.0;47;418.0;2218.0;49;585.39;2077.65;48.0;PHARMAZON;CA>7500 STAR PLUS COOP;48.8385206;2.2990707
51;PHARMACIE DE VILLIERS;8 AVENUE DE VILLIERS;75017;PARIS;01 47 63 36 51;75PER;4;3;;1;1;2;[];2022-06-08 00:00:00;;;870.0;1755.0;80;1093.0;1918.0;65;1093.0;2532.0;37;1115.0;2064.9;49.0;COS 500;;48.8817165;2.3153279
52;PHARMACIE CENTRALE;52 54 RUE DU COMMERCE;75015;PARIS;01 45 79 75 01;75GRE;4;3;;1;0;2;[Timestamp('2024-01-10 10:00:00')];2024-01-08 10:00:00;;;669.0;2589.0;33;502.0;2098.0;54;719.0;2689.0;31;1036.97;2046.57;50.0;APRIUM;LEADER SANTE/ APRIUM STAR PLUS;48.848172;2.2968904
53;PHARMACIE NECKER;38 BOULEVARD DU MONTPARNASSE;75015;PARIS;01 42 22 31 15;75MNP;6;3;;1;1;0;[Timestamp('2023-12-05 10:00:00')];2023-12-03 10:00:00;;;190.0;2363.0;42;357.0;2169.0;49;440.0;2262.0;48;903.18;2040.7;51.0;PYXIS;CA<7500 STAR;48.8451299;2.319555
54;PHARMACIE NECKER;47 BOULEVARD PASTEUR;75015;PARIS;01 47 83 69 27;75MNP;7;0;;1;1;2;[Timestamp('2023-12-05 10:00:00')];2023-12-03 10:00:00;;;1070.0;1057.0;0;1383.0;789.0;0;847.0;838.0;0;903.18;2040.7;51.0;COTE PHARMA;;48.8422471;2.3135585
55;PHARMACIE DE LA MUETTE;2 AVENUE MOZART;75016;PARIS;01 42 88 21 69;75PAS;5;0;;1;1;2;[];2022-05-10 00:00:00;;;647.0;2044.0;63;820.0;1710.0;89;847.0;1605.0;85;579.81;1983.76;52.0;APRIUM;;48.8579148;2.2738227
56;PHARMACIE EL KAIM LESELBAUM;1 PLACE DE LA REPUBLIQUE;92300;LEVALLOIS PERRET;01 47 37 03 26;92LEV;5;3;;0;0;0;[Timestamp('2024-02-20 09:30:00')];2024-02-18 09:30:00;;;1525.0;2111.0;52;1525.0;2111.0;52;1525.0;1711.0;79;992.36;1957.07;54.0;PHARMACTIV;CA<7500 STAR;48.8931647;2.28901
57;PHARMACIE DUROC;76 RUE DE SEVRES;75007;PARIS;01 47 34 76 01;75INV;3;0;;1;0;0;[];;;;390.0;1080.0;0;284.0;960.0;0;301.0;1158.0;0;301.06;1955.07;55.0;LEADER SANTE;;48.8475511;2.3183826
58;PHARMACIE DELOISON;9 B RUE ERNEST DELOISON;92200;NEUILLY SUR SEINE;01 46 24 70 50;92NEU;4;0;;1;1;0;[];;;;1639.0;2119.0;56;1226.0;1692.0;94;1784.0;2712.0;28;1672.5;1952.12;56.0;APRIUM;;48.8772053;2.2487279
59;PHARMACIE DU PONT DE NEUILLY;174 AVENUE CHARLES DE GAULLE;92200;NEUILLY SUR SEINE;01 46 24 75 32;92NEU;5;3;;1;1;0;[];;;;1405.0;1984.0;68;1349.0;2060.0;58;1098.0;1956.0;60;434.96;1932.56;57.0;ALPHEGA DIAMANT;CA<7500 PARTENAIRE;48.8854362;2.2594645
60;PHARMACIE LECOURBE CAMBRONNE;112 RUE LECOURBE;75015;PARIS;01 47 34 05 52;75MNP;4;3;;1;1;0;[Timestamp('2023-11-29 10:00:00')];2023-11-27 10:00:00;;;1004.0;3326.0;17;914.0;2084.0;55;914.0;1901.0;64;797.24;1904.15;58.0;;CA>7500 STAR PLUS COOP;48.8427695;2.3027722
61;PHARMACIE DU TRIANGLE;2 AVENUE DE FRIEDLAND;75008;PARIS;01 45 61 17 80;75ELY;5;0;;1;0;0;[];;;;379.0;1891.0;73;273.0;1591.0;102;84.0;1629.0;84;384.69;1898.03;59.0;APRIUM;LEADER SANTE/ APRIUM PARTENAIRE;48.8750004;2.3048594
62;PHARMACIE STORNI REHBY;27 RUE DE MIROMESNIL;75008;PARIS;01 42 65 27 49;75ELY;2;0;;1;0;0;[];;;;513.0;1664.0;92;624.0;1433.0;118;842.0;1580.0;90;1014.67;1897.26;60.0;;CA<7500 STAR;48.8729808;2.3159075
63;PHARMACIE WUHRLIN CHARBONNEL;64 RUE DE TOCQUEVILLE;75017;PARIS;01 43 80 13 40;75PER;4;0;;1;1;0;[];;;;1600.0;1489.0;107;1104.0;1674.0;98;987.0;1476.0;104;1087.15;1895.53;61.0;APRIUM;LEADER SANTE/ APRIUM STAR;48.8849438;2.3109526
64;PHARMACIE DE PARIS;5 PLACE DE LA PORTE DE CHAMPERRET;75017;PARIS;01 45 72 43 25;75PER;6;0;;1;1;0;[];;;;379.0;1735.0;83;597.0;1771.0;82;407.0;1078.0;0;384.69;1893.02;62.0;COS 500;;48.885673;2.2903323
65;PHARMACIE SOLARD;106 BOULEVARD DE COURCELLES;75017;PARIS;01 47 63 45 48;75PER;6;3;;1;1;2;[];2022-05-31 00:00:00;;;1109.0;2206.0;53;1104.0;2106.0;53;987.0;2074.0;54;869.72;1892.47;63.0;CENTRALE DES PHARMACIENS;CA<7500 STAR;48.8790601;2.3019183
66;PHARMACIE EUROPEENNE;13 RUE DE LA TREMOILLE;75008;PARIS;01 47 23 39 25;75ELY;3;3;;1;0;0;[Timestamp('2024-02-21 09:30:00')];2024-02-19 09:30:00;;;624.0;1875.0;75;624.0;1892.0;69;624.0;1713.0;78;434.86;1861.14;64.0;;CA<7500 TOP24;48.8673547;2.30338
67;PHARMACIE DE L EUROPE;20 AVENUE DE L EUROPE;92300;LEVALLOIS PERRET;01 47 48 06 07;92LEV;4;3;;1;1;0;[];;;;836.0;2570.0;35;669.0;2463.0;35;;2770.0;24;217.43;1847.99;65.0;APRIUM;;48.8978543;2.282726
68;PHARMACIE DU TROCADERO;106 AVENUE KLEBER;75116;PARIS;01 47 27 84 60;75TRO;5;0;;0;0;0;[];;;;;872.0;0;217.0;713.0;0;518.0;1525.0;95;735.92;1818.29;66.0;SUPRAPHARM;;48.8650763;2.2884537
69;PHARMACIE DE LA PORTE D ASNIERES;96 BOULEVARD BERTHIER;75017;PARIS;01 47 64 94 12;75PER;6;0;;1;0;0;[];;;;379.0;2202.0;54;435.0;1137.0;0;435.0;1474.0;106;652.29;1809.73;67.0;COS 500;;48.8900107;2.3033885
70;PHARMACIE DE LA PORTE BRANCION;94 BOULEVARD LEFEBVRE;75015;PARIS;01 48 28 32 55;75VAU;4;0;;1;0;2;[];2022-06-07 00:00:00;;;479.0;1727.0;84;658.0;873.0;0;780.0;1537.0;93;919.88;1808.41;68.0;APRIUM;;48.8284684;2.3010363
71;PHARMACIE DU DRUGSTORE CHAMPS ELYSEE;133 AVENUE DES CHAMPS ELYSEES;75008;PARIS;01 47 20 39 25;75TRO;4;0;;1;0;0;[];;;;514.0;1540.0;103;546.0;1605.0;101;505.0;1603.0;86;448.91;1797.39;69.0;;CA<7500 TOP24;48.8727993;2.297003
72;PHARMACIE GRENELLE TOUR EIFFEL;63 BOULEVARD DE GRENELLE;75015;PARIS;01 45 79 18 51;75GRE;7;0;;1;0;2;[];2022-06-07 00:00:00;;;1004.0;1710.0;86;1661.0;1485.0;113;1327.0;1587.0;88;1549.85;1793.67;70.0;;CA<7500 STAR;48.8507855;2.2931492
73;PHARMACIE SAINT JAMES;14 AVENUE DE MADRID;92200;NEUILLY SUR SEINE;01 46 24 03 34;92NEU;6;0;;1;1;0;[];;;;959.0;1199.0;0;1226.0;1774.0;81;1226.0;1550.0;92;557.5;1790.27;71.0;;CA<7500 TOP24;48.8832262;2.2596147
74;PHARMACIE FRANCAISE;40 RUE DES ACACIAS;75017;PARIS;01 43 80 18 26;75TER;4;3;;1;1;0;[];;;;870.0;1289.0;0;1093.0;2047.0;60;1093.0;1463.0;107;1115.0;1775.33;72.0;SYNERGIPHAR;CA<7500 PARTENAIRE;48.8772108;2.2925204
75;PHARMACIE MATIGNON;1 AVENUE MATIGNON;75008;PARIS;01 43 59 86 55;75ELY;3;0;;1;0;0;[];;;;379.0;1956.0;70;597.0;1704.0;92;385.0;1364.0;118;468.31;1738.42;73.0;;CA<7500 TOP24;48.8696279;2.3109458
76;PHARMACIE DE SEVRES;119 RUE DE SEVRES;75006;PARIS;01 47 34 36 64;75INV;4;0;;1;1;2;[];2022-06-07 00:00:00;;;847.0;1307.0;0;479.0;1150.0;0;563.0;867.0;0;468.31;1729.3;74.0;SYNERGIPHAR;CA<7500 PARTENAIRE;48.8477609;2.3193475
77;PHARMACIE DE PRONY;53 RUE DE PRONY;75017;PARIS;01 47 63 30 16;75PER;5;0;;1;1;2;[Timestamp('2023-11-08 15:00:00')];2023-11-06 15:00:00;;;859.0;2176.0;55;741.0;1749.0;85;580.0;1980.0;59;869.72;1723.3;75.0;LEADER SANTE;;48.8822691;2.3040656
78;PHARMACIE DE CHAILLOT;19 RUE BENJAMIN FRANKLIN;75116;PARIS;01 45 24 01 40;75PAS;5;0;;1;0;0;[];;;;;2034.0;64;;3025.0;18;;2926.0;21;0.0;1715.04;76.0;GIPHAR;;48.8601176;2.2855458
79;PHARMACIE MALLET SELLAM;151 BOULEVARD MALESHERBES;75017;PARIS;01 45 74 36 49;75PER;7;0;;1;0;0;[];;;;;428.0;0;167.0;830.0;0;251.0;880.0;0;758.22;1692.09;77.0;WELL & WELL;CA<7500 TOP24;48.8849221;2.3073186
80;PHARMACIE DE COURVAL;4 RUE POUSSIN;75016;PARIS;01 42 88 07 71;75AUT;5;0;;1;1;0;[];;;;1185.0;1437.0;111;1612.0;1717.0;88;1416.0;1770.0;73;925.46;1674.73;78.0;PHARMAVIE GOLD;CA<7500 STAR;48.8489965;2.2657409
81;PHARMACIE PLACE CAMBRONNE;6 PLACE CAMBRONNE;75015;PARIS;01 45 67 12 86;75MNP;8;0;;1;1;0;[];;;;1004.0;1486.0;109;1126.0;1689.0;95;1009.0;1582.0;89;1109.44;1665.19;79.0;PHARMACTIV;CA<7500 PARTENAIRE;48.8479668;2.301559712188749
82;PHARMACIE KLEBER;91 AVENUE KLEBER;75116;PARIS;01 47 27 95 09;75TRO;5;0;;1;1;2;[];2022-04-19 00:00:00;;;758.0;1411.0;112;714.0;1096.0;0;524.0;990.0;0;334.52;1663.08;80.0;;;48.8639478;2.2881796
83;PHARMACIE REMUSAT;14 RUE DE REMUSAT;75016;PARIS;01 45 25 18 50;75AUT;6;3;;1;1;0;[];;;;1015.0;2090.0;57;1450.0;1965.0;63;1132.0;1811.0;67;1644.64;1662.0;81.0;APRIUM;;48.8481247;2.271359
84;PHARMACIE MOREAU;5 PLACE DE MEXICO;75116;PARIS;01 47 27 81 95;75TRO;5;0;;1;0;0;[];;;;1176.0;1571.0;97;1277.0;1383.0;0;1160.0;1509.0;97;1087.15;1647.17;82.0;;CA<7500 TOP24;48.8653066;2.2830351
85;PHARMACIE SAINT FERDINAND;9 RUE SAINT FERDINAND;75017;PARIS;01 45 74 53 58;75TER;5;3;;1;0;0;[];;;;84.0;2361.0;43;167.0;2270.0;45;167.0;2122.0;53;83.63;1636.62;83.0;;CA<7500 PARTENAIRE;48.8785599;2.2896542
86;PHARMACIE BOUCICAUT;45 AVENUE FELIX FAURE;75015;PARIS;01 45 58 45 89;75GRE;7;0;;1;0;0;[];;;;1466.0;1386.0;114;853.0;1552.0;109;808.0;1314.0;0;1232.09;1631.95;84.0;SUPRAPHARM;CA<7500 STAR;48.8407954;2.2874031
87;PHARMACIE BOISSIERE;43 45 AVENUE KLEBER;75116;PARIS;01 47 27 83 68;75TRO;7;3;;1;0;0;[];;;;379.0;2055.0;59;379.0;2061.0;57;190.0;2019.0;56;0.0;1629.24;85.0;CENTRALE DES PHARMACIENS;CA<7500 PARTENAIRE;48.8678188;2.2907004
88;PHARMACIE SAINT PIERRE;18 RUE GEORGES BIZET;75116;PARIS;01 47 20 03 81;75TRO;4;3;;1;0;0;[Timestamp('2024-01-19 16:00:00')];2024-01-17 16:00:00;;;714.0;1698.0;88;524.0;1857.0;73;418.0;1503.0;99;384.69;1611.08;86.0;EXCEL PHARMA;CA<7500 PARTENAIRE;48.867581;2.2974189
89;PHARMACIE TREBOIS;35 RUE TREBOIS;92300;LEVALLOIS PERRET;01 47 37 18 65;92LEV;7;3;;1;0;0;[];;;;-139.0;2518.0;37;346.0;3845.0;9;390.0;3845.0;10;602.11;1603.0;87.0;;CA<7500 PARTENAIRE;48.8918317;2.2891491
90;PHARMACIE VICTOR HUGO;73 RUE VICTOR HUGO;92300;LEVALLOIS PERRET;01 47 37 08 04;92LEV;5;3;;1;0;0;[];;;;;2054.0;60;;1903.0;68;217.0;1752.0;75;217.43;1597.91;88.0;LEADER SANTE;;48.8956945;2.2965747
91;GRANDE PHARMACIE DU 15EME;119 RUE SAINT CHARLES;75015;PARIS;01 45 77 88 46;75GRE;3;0;;1;1;2;[];2022-04-10 00:00:00;;;591.0;1132.0;0;563.0;1555.0;108;475.0;1360.0;119;752.63;1564.16;89.0;SYNERGIPHAR CAP;;48.8444721;2.2838067
92;PHARMACIE GRANDE PHARMACIE CENTRALE PASTEUR;59 BOULEVARD PASTEUR;75015;PARIS;01 43 20 78 19;75MNP;10;0;;1;0;0;[];;;;;324.0;0;84.0;696.0;0;167.0;906.0;0;418.14;1544.11;90.0;;CA<7500 PARTENAIRE;48.8415201;2.3143315
93;PHARMACIE DES SPORTS;2 PLACE DU GENERAL KOENIG;75017;PARIS;01 45 74 31 10;75TER;3;0;;1;1;2;[];2022-05-15 00:00:00;;;741.0;1969.0;69;636.0;1757.0;83;552.0;1518.0;96;970.07;1525.77;91.0;APRIUM;;48.8809434;2.2849959
94;PHARMACIE DES BELLES FEUILLES;37 41 RUE SAINT DIDIER;75116;PARIS;01 47 27 14 72;75TRO;4;3;;1;1;0;[Timestamp('2024-01-03 10:00:00')];2024-01-01 10:00:00;;;1366.0;1769.0;78;1132.0;1904.0;67;1115.0;1475.0;105;1349.16;1517.36;92.0;LEADER SANTE;;48.8662026;2.2880275
95;PHARMACIE BUGEAUD;18 AVENUE BUGEAUD;75116;PARIS;01 47 27 54 77;75TRO;4;0;;1;1;0;[];;;;1004.0;1551.0;99;886.0;1090.0;0;769.0;1302.0;0;869.72;1516.33;93.0;PHARMAZON;CA>7500 STAR PLUS COOP;48.8703349;2.2826293
96;PHARMACIE HALWANI;19 RUE DE LOURMEL;75015;PARIS;01 45 78 86 18;75GRE;6;0;;1;0;0;[];;;;84.0;1886.0;74;84.0;1118.0;0;84.0;1053.0;0;301.06;1506.65;94.0;APRIUM;LEADER SANTE/ APRIUM STAR;48.8493651;2.291455
97;PHARMACIE KIM;29 AVENUE DE FRIEDLAND;75008;PARIS;01 45 61 12 78;75TER;8;0;;1;0;1;[];2022-04-30 00:00:00;;;273.0;672.0;0;251.0;648.0;0;251.0;554.0;0;250.89;1502.95;95.0;LEADER SANTE;;48.8741607;2.300587
98;PHARMACIE BRANCION VOUILLE;22 RUE DE VOUILLE;75015;PARIS;01 45 33 99 63;75VAU;7;3;;1;0;0;[];;;;385.0;2224.0;51;268.0;2646.0;27;251.0;2801.0;23;685.75;1488.18;96.0;ALPHEGA DIAMANT;CA<7500 TOP24;48.834698;2.304648
99;PHARMACIE DE LA PORTE DE VERSAILLES;395 397 RUE DE VAUGIRARD;75015;PARIS;01 48 28 62 60;75VAU;10;0;;0;0;0;[];;;;843.0;1508.0;105;1487.0;1705.0;91;1472.0;1749.0;77;953.33;1476.14;97.0;CENTRALE DES PHARMACIENS;;48.8421594;2.3101285
100;PHARMACIE HAUSSMANN LABORDE;130 BOULEVARD HAUSSMANN;75008;PARIS;01 45 22 16 72;75ELY;5;0;;1;0;0;[Timestamp('2023-07-26 15:00:00')];2023-07-24 15:00:00;;;597.0;1091.0;0;815.0;1147.0;0;815.0;1377.0;117;625.53;1451.01;98.0;COS 200;;48.8752597;2.3169592
101;PHARMACIE LITSCHI;156 AVENUE VICTOR HUGO;75116;PARIS;01 47 27 68 14;75PAS;5;0;;1;1;0;[];;;;1048.0;2240.0;48;1104.0;1674.0;97;769.0;487.0;0;869.72;1447.59;99.0;APRIUM;;48.8665915;2.2777819
102;PHARMACIE MIROMESNIL;58 RUE DE MIROMESNIL;75008;PARIS;01 45 22 18 87;75ELY;4;0;;1;0;0;[];;;;407.0;1394.0;113;624.0;1292.0;0;624.0;1343.0;0;434.86;1446.58;100.0;;CA<7500 STAR;48.8755611;2.3158595
103;PHARMACIE DE L ILE DE LA JATTE;199 BOULEVARD BINEAU;92200;NEUILLY SUR SEINE;01 46 24 16 12;92NEU;6;0;;1;0;0;[];;;;468.0;2621.0;30;307.0;1753.0;84;307.0;1750.0;76;561.97;1432.37;101.0;CENTRALE DES PHARMACIENS;CA<7500 STAR;48.8944128;2.2665112
104;PHARMACIE LAHSSINI;8 AVENUE PIERRE 1ER DE SERBIE;75116;PARIS;01 47 20 85 28;75TRO;8;0;;1;0;0;[];;;;;;0;558.0;404.0;0;1115.0;935.0;0;1784.0;1424.46;102.0;;;48.8654778;2.2955756
105;PHARMACIE PARISIENNE;104 RUE SAINT DOMINIQUE;75007;PARIS;01 47 05 83 95;75INV;2;0;;1;1;2;[];2022-04-25 00:00:00;;;970.0;917.0;0;435.0;831.0;0;435.0;842.0;0;992.35;1397.49;103.0;PHARMAVIE ULTIMATE;CA>7500 STAR PLUS COOP;48.8589664;2.3038397
106;PHARMACIE D ALLERAY;48 RUE PAUL BARRUEL;75015;PARIS;01 48 28 58 10;75MNP;10;0;;0;0;0;[Timestamp('2024-01-25 15:00:00')];2024-01-23 15:00:00;;;;1012.0;0;;1574.0;106;;1598.0;87;83.63;1393.19;104.0;SUPRAPHARM;;48.8370128;2.3060462
107;PHARMACIE LAURISTON 99;99 RUE LAURISTON;75116;PARIS;01 47 27 80 94;75TRO;9;0;;1;0;0;[];;;;474.0;910.0;0;457.0;978.0;0;167.0;706.0;0;167.26;1389.29;105.0;ALPHEGA DIAMANT;CA<7500 TOP24;48.8671627;2.2878291
108;PHARMACIE BEAUGRENELLE;36 B RUE DES ENTREPRENEURS;75015;PARIS;01 45 78 15 71;75GRE;6;0;;1;1;2;[];2022-05-22 00:00:00;;;981.0;1349.0;119;1037.0;1475.0;114;769.0;1418.0;114;1087.15;1382.51;106.0;;CA<7500 STAR;48.8445322;2.2908156
109;PHARMACIE BOULAINVILLIERS;48 RUE DE BOULAINVILLIERS;75016;PARIS;01 42 88 21 78;75PAS;9;0;;1;0;0;[];;;;1187.0;1684.0;89;836.0;1440.0;116;518.0;1360.0;0;992.36;1370.21;107.0;CENTRALE DES PHARMACIENS;CA<7500 STAR;48.8559682;2.2750029
110;PHARMACIE KADIRBAY;60 RUE DUTOT;75015;PARIS;01 47 34 99 77;75MNP;8;0;;1;1;0;[];;;;435.0;1452.0;110;680.0;1163.0;0;708.0;1025.0;0;1087.15;1359.12;108.0;GIROPHARM;GIROPHARM PARTENAIRE;48.8385974;2.3086096
111;PHARMACIE CAILLAULT;2 RUE PIERRE DEMOURS;75017;PARIS;01 45 74 65 23;75TER;7;0;;1;0;0;[];;;;;1188.0;0;167.0;1825.0;76;167.0;1871.0;65;250.89;1348.8;109.0;ALPHEGA DIAMANT;;48.8797253;2.2914609
112;SELARL LALAURIE;276 RUE LECOURBE;75015;PARIS;01 45 57 62 80;75GRE;9;0;;0;0;0;[];;;;;603.0;0;;496.0;0;;383.0;0;301.06;1331.85;110.0;WELL & WELL;;48.8384712;2.2887008
113;PHARMACIE 40 VANEAU;40 RUE VANEAU;75007;PARIS;01 45 51 40 23;75INV;5;0;;1;0;0;[];;;;217.0;1333.0;120;725.0;923.0;0;725.0;928.0;0;590.96;1323.27;111.0;EXCEL PHARMA;CA<7500 STAR;48.8518471;2.3189437
114;PHARMACIE DU METRO LOUISE MICHEL;33 RUE LOUISE MICHEL;92300;LEVALLOIS PERRET;01 47 57 00 02;92LEV;5;0;;1;0;0;[];;;;;1614.0;93;217.0;1548.0;110;217.0;1308.0;0;217.43;1297.28;112.0;APRIUM;;48.8887111;2.2873958
115;PHARMACIE BOULET;40 42 RUE DU PRESIDENT WILSON;92300;LEVALLOIS PERRET;01 47 37 43 16;92LEV;5;0;;1;1;0;[];;;;859.0;1509.0;104;468.0;1776.0;80;558.0;1460.0;108;557.5;1273.58;113.0;IPHARM;;48.8948163;2.2879069
116;PHARMACIE JEANNE;182 AVENUE DE VERSAILLES;75016;PARIS;01 42 88 48 18;75AUT;7;0;;1;0;2;[];2022-06-05 00:00:00;;;297.0;1021.0;0;254.0;1576.0;105;175.0;1690.0;81;252.42;1268.27;114.0;PYXIS;;48.8396083;2.2622127
117;PHARMACIE BIR HAKEIM;6 BOULEVARD DE GRENELLE;75015;PARIS;01 45 77 33 30;75GRE;7;0;;1;0;0;[];;;;190.0;992.0;0;84.0;963.0;0;167.0;1140.0;0;250.89;1266.73;115.0;SUPRAPHARM;;48.8537653;2.289141
118;PHARMACIE 111;111 AVENUE VICTOR HUGO;75116;PARIS;01 45 53 82 20;75TRO;6;0;;1;1;1;[];2022-01-12 00:00:00;;;847.0;728.0;0;741.0;923.0;0;440.0;667.0;0;334.52;1258.29;116.0;;;48.8685164;2.2829139
119;MB PHARM;19 AVENUE FELIX FAURE;75015;PARIS;01 45 57 72 37;75GRE;7;0;;1;1;2;[];2022-04-23 00:00:00;;;513.0;1128.0;0;948.0;1197.0;0;613.0;1098.0;0;652.29;1250.13;117.0;COTE PHARMA;;48.8420925;2.2906251
120;PHARMACIE DU SEPTIEME;18 B AVENUE DE LA MOTTE PICQUET;75007;PARIS;01 45 51 31 82;75INV;6;0;;1;1;1;[];2022-02-21 00:00:00;;;513.0;1612.0;95;491.0;1365.0;0;156.0;1306.0;0;167.26;1245.41;118.0;EXCEL PHARMA;CA>7500 PARTENAIRE PLUS;48.8560698;2.3078575
121;PHARMATAM;76 RUE DES ENTREPRENEURS;75015;PARIS;01 45 78 80 33;75GRE;9;0;;1;0;0;[];;;;600.0;1184.0;0;210.0;888.0;0;210.0;762.0;0;434.86;1229.11;119.0;SYNERGIPHAR;CA<7500 TOP24;48.8447606;2.2900122
122;GRANDE PHARMACIE DU MARCHE;211 RUE DE LA CONVENTION;75015;PARIS;01 48 28 67 92;75VAU;5;0;;1;1;0;[];;;;886.0;1614.0;94;769.0;1334.0;0;652.0;997.0;0;652.29;1226.17;120.0;IPHARM;;48.836454;2.2994511
123;PHARMACIE ALTOBELLI CHEKROUN;75 RUE SAINT DOMINIQUE;75007;PARIS;01 45 51 63 67;75INV;3;0;;1;1;2;[Timestamp('2024-01-16 17:00:00')];2024-01-02 10:30:00;;;629.0;1210.0;0;796.0;1384.0;120;851.0;1483.0;103;791.68;1206.96;;PYXIS;CA>7500 PARTENAIRE PLUS;48.8597979;2.3090162
124;PHARMACIE PARIS EIFFEL;114 RUE SAINT DOMINIQUE;75007;PARIS;01 47 05 45 80;75INV;4;0;;1;0;2;[Timestamp('2024-02-16 09:00:00')];2024-02-14 09:00:00;;;985.0;1288.0;0;1724.0;1695.0;93;1477.0;1574.0;91;1169.64;1193.04;;PHARMACTIV;;48.8583161;2.3017982
125;PHARMACIE DE LA FAISANDERIE;63 RUE DE LA FAISANDERIE;75116;PARIS;01 47 27 36 76;75PAS;7;0;;1;0;0;[];;;;714.0;1278.0;0;552.0;1193.0;0;435.0;1034.0;0;942.19;1192.28;;APRIUM;;48.8682407;2.2756536
126;PHARMACIE TERNES MAC MAHON;29 AVENUE DES TERNES;75017;PARIS;01 46 22 04 85;75TER;8;0;;1;0;0;[];;;;;353.0;0;84.0;471.0;0;84.0;687.0;0;83.63;1191.23;;LEADER SANTE;;48.8783503;2.2947778
127;PHARMACIE ABITBOL;92 RUE ARISTIDE BRIAND;92300;LEVALLOIS PERRET;01 47 37 13 84;92LEV;8;0;;1;0;0;[];;;;-201.0;1204.0;0;-201.0;1206.0;0;-201.0;830.0;0;83.63;1186.33;;EXCEL PHARMA;CA<7500 TOP24;48.8933202;2.290594
128;PHARMACIE VERSAILLES MIRABEAU;38 AVENUE DE VERSAILLES;75016;PARIS;01 45 27 29 56;75AUT;7;0;;1;0;0;[Timestamp('2023-07-20 10:30:00')];2023-07-18 10:30:00;;;357.0;1010.0;0;574.0;1130.0;0;574.0;2194.0;50;217.43;1183.32;;CENTRALE DES PHARMACIENS;;48.8493322;2.2754183
129;PHARM DE LA PLACE;9 PLACE DU GENERAL BEURET;75015;PARIS;01 48 28 56 11;75MNP;8;0;;1;0;0;[];;;;;915.0;0;84.0;794.0;0;167.0;953.0;0;334.52;1177.37;;CENTRALE DES PHARMACIENS;CA<7500 STAR;48.8416806;2.3030556
130;PHARMACIE AMAR;242 RUE DE LA CONVENTION;75015;PARIS;01 48 28 96 98;75VAU;5;0;;1;0;0;[];;;;190.0;2541.0;36;357.0;1655.0;100;385.0;2762.0;25;674.58;1172.03;;COS 500;;48.8357916;2.3010819
131;PHIE CONVENTION SAINT CHARLES;55 B RUE DE LA CONVENTION;75015;PARIS;01 45 77 57 94;75GRE;7;0;;1;1;2;[];2022-06-12 00:00:00;;;417.0;1366.0;116;624.0;1202.0;0;659.0;1323.0;0;988.41;1169.51;;PHARMAZON;CA>7500 PARTENAIRE PLUS;48.8356683;2.3018423
132;PHARMACIE 2L PHARMA;35 RUE JEAN DE LA FONTAINE;75016;PARIS;01 45 27 01 62;75AUT;8;0;;0;0;0;[];;;;190.0;2231.0;50;273.0;2671.0;26;251.0;2697.0;29;1036.97;1142.75;;CENTRALE DES PHARMACIENS;;48.8507222;2.2716041
133;PHARMACIE DU CENTRE;89 AVENUE DU ROULE;92200;NEUILLY SUR SEINE;01 46 24 02 42;92NEU;6;0;;1;0;0;[];;;;1004.0;1553.0;98;624.0;1588.0;104;290.0;1286.0;0;0.0;1131.57;;ALPHEGA DIAMANT;CA<7500 PARTENAIRE;48.8831531;2.2738914
134;PHARMACIE LA PH DU MARCHE;197 AVENUE DE VERSAILLES;75016;PARIS;01 46 51 64 08;75AUT;7;0;;1;0;0;[Timestamp('2023-11-29 14:30:00')];2023-11-27 14:30:00;;;1628.0;1373.0;115;1946.0;1368.0;0;1277.0;1385.0;116;869.71;1128.87;;PHARMAZON;CA<7500 TOP24;48.8388236;2.2608394
135;PHARMACIE ANGLO AMERICAINE;37 AVENUE MARCEAU;75116;PARIS;01 47 20 57 37;75TRO;5;0;;1;1;0;[];;;;652.0;1169.0;0;357.0;1438.0;117;301.0;1194.0;0;434.86;1127.0;;LEADER SANTE;LEADER SANTE/ APRIUM STAR;48.8681424;2.2987653
136;PHARMACIE DU FAUBOURG ST HONORE;122 RUE DU FAUBOURG SAINT HONORE;75008;PARIS;01 45 62 88 93;75ELY;8;0;;0;0;0;[];;;;379.0;415.0;0;597.0;728.0;0;217.0;549.0;0;217.43;1115.18;;SUPRAPHARM;;48.8720548;2.3134849
137;PHARMACIE CENTRALE D AUTEUIL;122 RUE JEAN DE LA FONTAINE;75016;PARIS;01 42 88 04 86;75AUT;7;3;;1;0;2;[Timestamp('2023-11-08 09:30:00')];2023-11-06 09:30:00;;;;1365.0;117;;2357.0;39;;2169.0;51;0.0;1111.58;;WELL & WELL;;48.8482684;2.2644971
138;PHARMACIE LA FONTAINE;4 RUE JEAN DE LA FONTAINE;75016;PARIS;01 42 88 79 51;75AUT;7;0;;1;1;2;[];2022-05-01 00:00:00;;;853.0;1352.0;118;1132.0;1821.0;77;518.0;1360.0;120;384.68;1108.08;;EXCEL PHARMA;CA<7500 PARTENAIRE;48.8527939;2.2754848
139;PHARMACIE BOSQUET GRENELLE;49 AVENUE BOSQUET;75007;PARIS;01 45 51 35 91;75INV;4;0;;1;1;2;[];2022-05-16 00:00:00;;;84.0;739.0;0;167.0;748.0;0;167.0;708.0;0;167.26;1106.82;;ALPHEGA DIAMANT;CA<7500 STAR;48.8571082;2.3045687
140;PHARMACIE ACTIPHARMA;60 RUE LECOURBE;75015;PARIS;01 47 34 23 57;75MNP;8;0;;0;0;0;[];;;;82.0;1502.0;106;41.0;2035.0;61;;1758.0;74;0.0;1100.4;;PHARMAZON;;48.843882;2.3066432
141;PHARMACIE DE LA POSTE;60 RUE DE LA CROIX NIVERT;75015;PARIS;01 48 28 31 14;75GRE;8;0;;1;1;2;[];2022-04-20 00:00:00;;;190.0;1055.0;0;440.0;1186.0;0;418.0;1286.0;0;635.57;1095.12;;;CA<7500 PARTENAIRE;48.8451633;2.2974608
142;PHARMACIE MCZ PHARMA;70 RUE DU BAC;75007;PARIS;01 45 48 99 74;75INV;10;0;;0;0;0;[];;;;;;0;435.0;409.0;0;435.0;409.0;0;992.36;1092.63;;CENTRALE DES PHARMACIENS;;48.8555391;2.3250515
143;PHARMACIE LAMARTINE;132 AVENUE VICTOR HUGO;75116;PARIS;01 47 27 87 85;75TRO;4;0;;1;0;0;[];;;;569.0;1098.0;0;630.0;1036.0;0;630.0;1149.0;0;250.88;1084.41;;SUPRAPHARM;CA<7500 PARTENAIRE;48.8675343;2.2800026
144;PHARMACIE MEXICO;9 PLACE DE MEXICO;75116;PARIS;01 47 27 92 28;75TRO;5;0;;1;1;0;[];;;;84.0;979.0;0;251.0;1216.0;0;251.0;1137.0;0;250.89;1072.41;;IPHARM;;48.8655226;2.2829694
145;PHARMACIE DUBLY;72 AVENUE KLEBER;75116;PARIS;01 47 27 97 51;75TRO;5;0;;1;0;0;[Timestamp('2023-07-24 11:00:00')];2023-07-22 11:00:00;;;652.0;1157.0;0;741.0;1077.0;0;552.0;854.0;0;819.54;1053.17;;APRIUM;;48.8675473;2.2902464
146;PHARM 35;35 BOULEVARD GOUVION SAINT CYR;75017;PARIS;01 45 72 47 52;75TER;5;0;;1;0;0;[];;;;84.0;2028.0;65;167.0;1833.0;75;251.0;1452.0;109;551.94;1031.86;;PHR;;48.8830364;2.2877333
147;PHARMACIE GAUMERAIS;59 BOULEVARD LEFEBVRE;75015;PARIS;01 48 28 02 27;75VAU;9;0;;0;0;0;[];;;;522.0;716.0;0;562.0;2064.0;56;803.0;2146.0;52;622.17;1029.26;;UNIPHARM GRAND OUEST;;48.8310694;2.2925616
148;PHIE ROND POINT CHAMPS ELYSEES;49 B AVENUE FRANKLIN DELANO ROOSEVELT;75008;PARIS;01 43 59 23 71;75ELY;7;0;;1;0;0;[];;;;;447.0;0;;511.0;0;217.0;1023.0;0;217.43;1022.88;;COS 200;;48.8659605;2.3101845
149;PHARMACIE SIBONI;188 RUE LECOURBE;75015;PARIS;01 45 32 95 42;75MNP;7;0;;1;0;0;[];;;;920.0;1543.0;100;730.0;1173.0;0;396.0;926.0;0;774.93;1022.44;;CENTRALE DES PHARMACIENS;;48.8409056;2.2966952
150;PHARM DU PARC MONCEAU;63 RUE DE COURCELLES;75008;PARIS;01 47 66 42 32;75ELY;7;0;;0;0;0;[];;;;;897.0;0;;1814.0;78;;1902.0;63;0.0;1021.26;;GIPHAR;;48.8775557;2.3059693
151;PHARMACIE DU PALAIS DES SPORTS;32 RUE GABRIEL PERI;92300;LEVALLOIS PERRET;01 47 57 86 57;92LEV;7;0;;1;1;0;[];;;;513.0;834.0;0;507.0;798.0;0;390.0;811.0;0;652.29;1020.43;;;CA<7500 STAR;48.8911022;2.2886981
152;PHARMACIE RIVE GAUCHE;4 AVENUE EMILE ZOLA;75015;PARIS;09 67 48 85 93;75GRE;9;0;;0;0;0;[];;;;;1036.0;0;;1748.0;86;;1775.0;72;0.0;1018.62;;GIPHAR;;48.8460554;2.277998
153;PHARMACIE BUFFON;185 RUE DE VAUGIRARD;75015;PARIS;01 47 34 35 66;75MNP;9;0;;1;0;0;[Timestamp('2024-01-26 15:00:00')];2024-01-24 15:00:00;;;;862.0;0;84.0;877.0;0;84.0;775.0;0;468.31;1014.52;;LEADER SANTE;;48.8427013;2.3120721
154;PHARMACIE PHARMAVANCE VOUILLE;3 RUE DE VOUILLE;75015;PARIS;01 48 28 21 10;75VAU;8;0;;1;1;0;[];;;;663.0;1740.0;82;431.0;1669.0;99;576.0;1436.0;110;629.38;1009.45;;PHARMAZON;CA>7500 STAR PLUS COOP;48.8354343;2.3030182
155;PHARMACIE LEON KLOCHENDLER;39 BOULEVARD DE GRENELLE;75015;PARIS;01 45 79 53 19;75GRE;6;0;;1;1;0;[];;;;1555.0;986.0;0;1059.0;983.0;0;987.0;528.0;0;869.72;999.4;;APRIUM;;48.8519759;2.2916226
156;PHARMACIE CHARLES MICHELS;9 PLACE CHARLES MICHELS;75015;PARIS;01 45 78 01 51;75GRE;7;3;;1;1;2;[];2022-05-17 00:00:00;;;987.0;1765.0;79;1037.0;2268.0;46;658.0;1776.0;70;852.99;991.55;;;CA>7500 PARTENAIRE PLUS;48.8468842;2.2861377
157;PHARMACIE LEFEVRE NGUYEN PHU KHAI;42 RUE DU THEATRE;75015;PARIS;01 45 77 15 65;75GRE;8;0;;1;0;0;[];;;;463.0;841.0;0;574.0;1073.0;0;385.0;931.0;0;685.75;987.0;;SYNERGIPHAR;CA<7500 STAR;48.8488575;2.2880307
158;PHARMACIE THEOPILE GAUTIER;2 AVENUE THEOPHILE GAUTIER;75016;PARIS;01 42 88 05 65;75AUT;8;0;;1;0;0;[];;;;396.0;837.0;0;614.0;1079.0;0;424.0;937.0;0;652.29;985.52;;PHARMACTIV;CA<7500 TOP24;48.8510858;2.2748156
159;PHARMACIE SAINT DOMINIQUE;88 RUE SAINT DOMINIQUE;75007;PARIS;01 47 05 58 54;75INV;6;0;;1;0;0;[];;;;145.0;801.0;0;229.0;840.0;0;290.0;1066.0;0;635.57;982.02;;;CA<7500 TOP24;48.8595534;2.3064477
160;PHARMACIE DU GARIGLIANO;167 AVENUE DE VERSAILLES;75016;PARIS;01 42 88 33 37;75AUT;7;0;;1;0;0;[];;;;1639.0;1777.0;77;1628.0;1280.0;0;1093.0;1280.0;0;557.5;980.8;;CENTRALE DES PHARMACIENS;CA<7500 TOP24;48.8409897;2.2657799
161;PHARMACIE BAILLY;48 B AVENUE MOZART;75016;PARIS;01 42 88 13 81;75PAS;7;0;;1;0;0;[];;;;1756.0;938.0;0;1539.0;1257.0;0;1422.0;1339.0;0;1449.52;975.26;;EXCEL PHARMA;CA<7500 TOP24;48.8523289;2.268086
162;PHARMACIE FOURCROY;27 RUE FOURCROY;75017;PARIS;01 42 27 46 94;75TER;9;0;;1;0;0;[];;;;294.0;786.0;0;294.0;956.0;0;378.0;858.0;0;497.3;967.24;;EXCEL PHARMA;CA<7500 TOP24;48.881251;2.2982861
163;PHARMACIE SATELLITE;118 AVENUE DE VILLIERS;75017;PARIS;01 43 80 86 09;75PER;8;0;;1;0;0;[];;;;379.0;482.0;0;359.0;641.0;0;442.0;641.0;0;793.68;953.32;;SUPRAPHARM;CA<7500 TOP24;48.8852491;2.2959126
164;PHARMACIE LEBON;5 RUE LEBON;75017;PARIS;01 45 77 01 69;75TER;9;0;;1;0;0;[];;;;273.0;768.0;0;440.0;1162.0;0;524.0;823.0;0;418.14;947.24;;PHARMAZON;CA<7500 TOP24;48.8806784;2.2923066
165;PHARMACIE DE L ETOILE;9 AVENUE DE LA GRANDE ARMEE;75116;PARIS;01 45 00 10 90;75TRO;8;0;;1;0;0;[];;;;273.0;846.0;0;84.0;852.0;0;167.0;816.0;0;167.26;929.98;;;CA<7500 TOP24;48.8743956;2.2919989
166;PHARMACIE LORRAINE;50 AVENUE DE WAGRAM;75017;PARIS;01 47 63 39 93;75TER;10;0;;0;0;0;[];;;;;780.0;0;;1688.0;96;;1636.0;83;0.0;911.26;;CENTRALE DES PHARMACIENS;;48.878774;2.2989356
167;PHARMACIE BOUCHERIT;82 RUE DE LA POMPE;75116;PARIS;01 45 04 73 66;75PAS;7;0;;1;1;0;[];;;;558.0;777.0;0;440.0;775.0;0;251.0;682.0;0;167.26;898.85;;LEADER SANTE;;48.8637289;2.2772288
168;PHARMACIE PARSY;151 RUE DE GRENELLE;75007;PARIS;01 42 73 00 25;75INV;8;0;;0;0;0;[Timestamp('2024-01-23 16:00:00')];2024-01-21 16:00:00;;;;1140.0;0;;1886.0;70;;1952.0;61;301.06;896.31;;CEIDO;;48.8578654;2.3074783
169;PHARMACIE LECLERC BRAULT;10 RUE VIGNON;75009;PARIS;01 47 42 04 59;75ELY;4;0;;1;0;0;[];;;;84.0;688.0;0;167.0;800.0;0;167.0;763.0;0;83.63;887.65;;APRIUM;;48.8706562;2.326197
170;PHARMACIE HABIB DEPAILLAT;21 RUE ERNEST COGNACQ;92300;LEVALLOIS PERRET;01 47 57 16 14;92LEV;8;0;;1;0;0;[];;;;-31.0;1235.0;0;186.0;1289.0;0;256.0;1418.0;113;217.43;873.6;;EXCEL PHARMA;CA<7500 TOP24;48.8963281;2.276701
171;PHARMACIE BAC VERNEUIL;19 RUE DU BAC;75007;PARIS;01 42 61 27 62;75INV;6;0;;1;0;0;[];;;;870.0;839.0;0;1043.0;844.0;0;1500.0;883.0;0;1343.58;864.17;;;CA<7500 STAR;48.8581258;2.3283362
172;GRANDE PHARMACIE PONCELET;22 RUE PONCELET;75017;PARIS;01 42 27 50 33;75TER;6;0;;1;0;0;[];;;;;913.0;0;;901.0;0;;854.0;0;0.0;863.26;;SUPRAPHARM;CA<7500 PARTENAIRE;48.8793021;2.2976052
173;PHARMACIE DE L HORLOGE;54 RUE DE SABLONVILLE;92200;NEUILLY SUR SEINE;01 46 24 05 83;92NEU;5;0;;1;0;0;[];;;;669.0;1805.0;76;624.0;1349.0;0;624.0;969.0;0;724.76;861.8;;COS 500;;48.8803414;2.2770604
174;PHARMACIE DE LA GARE;1 RUE JOUFFROY D ABBANS;75017;PARIS;01 47 63 48 99;75PER;8;0;;0;0;0;[];;;;84.0;1325.0;0;84.0;1187.0;0;84.0;882.0;0;83.63;859.78;;EXCEL PHARMA;;48.8870925;2.3134316
175;PHARMACIE DE LA MADELEINE;5 RUE CHAUVEAU LAGARDE;75008;PARIS;01 42 65 39 75;75ELY;4;0;;1;0;0;[];;;;641.0;784.0;0;619.0;959.0;0;597.0;889.0;0;418.13;844.43;;WELL & WELL;CA<7500 TOP24;48.8712805;2.3236824
176;PHARMACIE DU GRAND PAVOIS;360 RUE LECOURBE;75015;PARIS;01 45 54 79 83;75GRE;8;3;;1;1;2;[];2022-04-30 00:00:00;;;1104.0;2632.0;28;435.0;2280.0;44;435.0;2280.0;47;557.5;839.63;;;CA<7500 TOP24;48.8364549;2.2820381
177;PHARMACIE DE LA GRANDE ARMEE;63 AVENUE DE LA GRANDE ARMEE;75116;PARIS;01 45 00 56 34;75TRO;8;0;;0;0;0;[];;;;;684.0;0;;988.0;0;;781.0;0;0.0;837.92;;APRIUM;;48.8761076;2.2866032
178;PHARMACIE BAC GRENELLE;67 RUE DE GRENELLE;75007;PARIS;01 45 48 72 70;75INV;5;0;;1;0;2;[];2022-04-18 00:00:00;;;190.0;346.0;0;273.0;458.0;0;167.0;618.0;0;167.26;824.09;;LEADER SANTE;;48.855049;2.3243931
179;PHARMACIE DAYRAS;80 RUE DE PRONY;75017;PARIS;01 47 63 21 55;75PER;6;0;;1;0;0;[];;;;;1066.0;0;;1728.0;87;;1505.0;98;0.0;815.28;;PHARMACTIV;;48.8839221;2.3006586
180;GRANDE PHARMACIE FALGUIERE;6 PLACE FALGUIERE;75015;PARIS;01 45 32 47 57;75VAU;6;0;;1;1;2;[];2022-04-17 00:00:00;;;953.0;956.0;0;937.0;1170.0;0;820.0;942.0;0;1170.78;787.52;;APRIUM;;48.8361124;2.3100104
181;PHARMACIE DE LA TOUR;72 RUE DE LA TOUR;75116;PARIS;01 45 03 04 53;75PAS;8;0;;0;0;0;[];;;;82.0;916.0;0;205.0;1451.0;115;205.0;1425.0;112;123.12;770.82;;PHR;;48.8607407;2.2802348
182;PHARMACIE DE L AVENUE;153 AVENUE CHARLES DE GAULLE;92200;NEUILLY SUR SEINE;01 46 24 01 10;92NEU;8;0;;0;0;0;[];;;;;406.0;0;;585.0;0;;587.0;0;0.0;743.68;;WELL & WELL;;48.8829067;2.265206
183;PHARMACIE MESNARD;42 AVENUE DE BRETEUIL;75007;PARIS;01 47 83 59 82;75INV;7;0;;1;0;0;[];;;;407.0;842.0;0;217.0;1068.0;0;217.0;1068.0;0;250.88;732.7;;PHARMACTIV;CA<7500 PARTENAIRE;48.8505375;2.3115308
184;PHARMACIE DE L EGLISE;1 PLACE TRISTAN BERNARD;75017;PARIS;01 45 74 11 09;75TER;10;0;;0;0;0;[];;;;;669.0;0;;796.0;0;;751.0;0;0.0;726.72;;PHR;;48.8793975;2.2915336
185;PHARMACIE CONTET;1 RUE DUBAN;75016;PARIS;01 42 88 63 36;75PAS;6;0;;0;0;0;[Timestamp('2023-12-04 10:00:00')];2023-12-02 10:00:00;;;952.0;1145.0;0;526.0;1268.0;0;722.0;1340.0;0;804.42;721.91;;PYXIS;;48.856402;2.2777604
186;PHARMACIE BAGHDADI;54 RUE JEAN JAURES;92300;LEVALLOIS PERRET;01 47 37 11 85;92LEV;9;0;;1;0;0;[];;;;84.0;1487.0;108;167.0;1571.0;107;167.0;1494.0;101;301.06;718.53;;PHARMACTIV;CA<7500 TOP24;48.8920708;2.2933853
187;PHARMACIE CENTRALE MIRABEAU;7 ROND POINT DU PONT MIRABEAU;75015;PARIS;01 45 77 85 23;75GRE;6;0;;1;0;0;[];;;;;450.0;0;167.0;719.0;0;167.0;933.0;0;167.26;710.71;;LEADER SANTE;;48.8457318;2.2772855
188;PHARMACIE 37 BOURGOGNE;37 RUE DE BOURGOGNE;75007;PARIS;01 45 51 70 52;75INV;7;0;;1;0;2;[];2022-05-15 00:00:00;;;652.0;657.0;0;820.0;872.0;0;524.0;789.0;0;334.51;705.38;;IPHARM;;48.8576309;2.317604
189;PHARMACIE BABYLONE;6 RUE DE BABYLONE;75007;PARIS;01 45 48 54 24;75INV;4;0;;1;0;2;[];2022-05-17 00:00:00;;;;580.0;0;385.0;638.0;0;602.0;533.0;0;1421.65;704.01;;COS 500;;48.8517854;2.3258319
190;PHARMACIE DE L ECOLE MILITAIRE;26 AVENUE DE TOURVILLE;75007;PARIS;01 47 05 55 38;75INV;7;0;;1;1;2;[];2022-05-22 00:00:00;;;;861.0;0;;702.0;0;;679.0;0;0.0;697.55;;APRIUM;;48.8542609;2.3067632
191;PHARMACIE GADY;223 BOULEVARD SAINT GERMAIN;75007;PARIS;01 45 48 20 86;75INV;9;0;;0;0;0;[];;;;;589.0;0;;584.0;0;;161.0;0;0.0;663.66;;PYXIS;;48.8581349;2.3232385
192;PHARMACIE RAMAJO ANCOURT;23 AVENUE RAPP;75007;PARIS;01 47 05 41 25;75INV;6;0;;1;0;0;[];;;;;577.0;0;;1025.0;0;;1121.0;0;0.0;660.66;;PHARMACTIV;;48.8597976;2.3010849
193;PHARMACIE DUBOIS WAGRAM;157 AVENUE DE WAGRAM;75017;PARIS;01 45 77 81 79;75PER;8;0;;0;0;0;[];;;;62.0;2022.0;66;205.0;1289.0;0;328.0;598.0;0;595.08;652.47;;PHARMAZON;;48.8861455;2.3038104
194;PHARMACIE DE LA CROIX D OR BATIGNOLLES MONCEAU;48 RUE LEGENDRE;75017;PARIS;01 47 63 06 92;75PER;10;0;;1;0;0;[];;;;84.0;324.0;0;301.0;423.0;0;518.0;423.0;0;652.29;649.7;;;CA<7500 STAR;48.8849116;2.3156517
195;PHARMACIE SVE;61 RUE BRANCION;75015;PARIS;01 45 32 42 62;75VAU;9;0;;0;0;0;[];;;;;556.0;0;;673.0;0;;645.0;0;0.0;641.22;;GIPHAR;;48.8328116;2.3036576
196;PHARMACIE 77 PICQUET GRENELLE;77 BOULEVARD DE GRENELLE;75015;PARIS;01 47 34 11 45;75GRE;10;0;;1;0;0;[];;;;106.0;711.0;0;106.0;518.0;0;106.0;737.0;0;0.0;640.23;;;CA<7500 TOP24;48.8503399;2.2945661
197;PHARMACIE PEREZ;82 AVENUE CHARLES DE GAULLE;92200;NEUILLY SUR SEINE;01 46 24 04 06;92NEU;7;0;;1;1;0;[];;;;106.0;806.0;0;;1341.0;0;;1317.0;0;83.63;634.64;;PHARMACTIV;;48.8817961;2.2709096
198;SELARL PHARMACIE CONSEIL LEVIS;5 PLACE DE LEVIS;75017;PARIS;01 42 27 49 51;75PER;7;0;;0;0;0;[];;;;;;0;62.0;302.0;0;62.0;352.0;0;61.56;621.54;;SUPRAPHARM;;48.8835489;2.3135286904545445
199;GRANDE PHARMACIE DURET;29 RUE DURET;75116;PARIS;01 45 00 10 20;75TRO;6;0;;1;0;0;[];;;;689.0;1220.0;0;479.0;689.0;0;430.0;700.0;0;461.61;581.54;;UNIPHARM GRAND OUEST;CA<7500 TOP24;48.8752796;2.2864126
200;PHARMACIE LA BOETIE CHAMPS ELYSEES;116 RUE LA BOETIE;75008;PARIS;01 43 59 35 50;75TER;4;0;;1;0;0;[];;;;190.0;870.0;0;190.0;599.0;0;;442.0;0;0.0;575.48;;COTE PHARMA;;48.8715468;2.3075024
201;PHARMACIE CHEKROUN;101 RUE PAUL VAILLANT COUTURIER;92300;LEVALLOIS PERRET;01 47 37 03 86;92LEV;10;0;;1;0;0;[];;;;21.0;835.0;0;86.0;802.0;0;86.0;575.0;0;21.41;573.99;;;CA<7500 TOP24;48.8978362;2.2922498
202;PHARM HIBERT;10 RUE WASHINGTON;75008;PARIS;01 45 63 79 20;75TER;8;0;;1;0;0;[];;;;;685.0;0;;601.0;0;;676.0;0;0.0;565.51;;PHR;CA<7500 TOP24;48.8724997;2.3021256
203;PHARMACIE JOUVENET;49 RUE CHARDON LAGACHE;75016;PARIS;01 42 88 37 61;75AUT;9;0;;1;0;0;[];;;;652.0;740.0;0;574.0;688.0;0;602.0;754.0;0;869.72;548.52;;SYNERGIPHAR;CA<7500 TOP24;48.8431038;2.2650017
204;PHARMACIE VOLONTAIRES;198 RUE DE VAUGIRARD;75015;PARIS;01 47 34 81 49;75MNP;9;0;;1;0;0;[];;;;273.0;455.0;0;357.0;636.0;0;251.0;599.0;0;250.89;545.84;;IPHARM;;48.8414616;2.307602
205;PHARMACIE DU PARC DES PRINCES;92 BOULEVARD MURAT;75016;PARIS;01 46 51 49 74;75AUT;10;0;;1;0;1;[];2022-02-20 00:00:00;;;931.0;900.0;0;987.0;696.0;0;1204.0;746.0;0;1087.15;544.41;;CENTRALE DES PHARMACIENS;CA<7500 TOP24;48.8477659;2.2588433
206;PHARMACIE SMADJA;373 B RUE DE VAUGIRARD;75015;PARIS;01 45 32 89 03;75VAU;10;0;;0;0;0;[];;;;334.0;992.0;0;708.0;1293.0;0;998.0;1181.0;0;1220.93;511.46;;CENTRALE DES PHARMACIENS;;48.8421594;2.3101285
207;PHARMACIE DE L ASSEMBLEE;7 RUE DE BOURGOGNE;75007;PARIS;01 45 51 54 41;75INV;8;0;;1;0;0;[Timestamp('2024-01-18 10:00:00')];2024-01-16 10:00:00;;;84.0;1702.0;87;167.0;1386.0;119;167.0;1434.0;111;83.63;511.08;;;CA<7500 PARTENAIRE;48.8599028;2.3182557
208;PHARMACIE MODERNE;80 RUE DU ROCHER;75008;PARIS;01 45 22 69 62;75ELY;4;0;;0;0;0;[];;;;20.0;41.0;0;251.0;162.0;0;351.0;367.0;0;771.12;500.1;;ALPHEGA DIAMANT;;48.8799646;2.3178839
209;PHARMACIE SEROR;12 AVENUE STEPHANE MALLARME;75017;PARIS;01 43 80 58 00;75PER;8;0;;1;0;0;[];;;;;556.0;0;;661.0;0;84.0;504.0;0;83.63;480.07;;PHR;;48.886069;2.2917504
210;PHARMACIE BONNEL;23 AVENUE DE LA MOTTE PICQUET;75007;PARIS;01 47 05 40 61;75INV;6;0;;1;0;2;[];2022-05-22 00:00:00;;;346.0;562.0;0;240.0;662.0;0;240.0;616.0;0;83.63;463.17;;PHARMACTIV;CA<7500 STAR;48.8554742;2.3076275
211;PHIE PRINCIPALE DES MORILLONS;54 RUE OLIVIER DE SERRES;75015;PARIS;01 48 28 50 82;75VAU;8;0;;1;0;0;[];;;;608.0;1291.0;0;853.0;1026.0;0;820.0;1054.0;0;735.92;429.66;;WELL & WELL;CA<7500 TOP24;48.8344222;2.2955078
212;PHARMACIE DU MIDI;38 AVENUE FELIX FAURE;75015;PARIS;01 45 54 15 48;75GRE;10;0;;0;0;0;[];;;;535.0;333.0;0;535.0;762.0;0;552.0;619.0;0;434.86;429.58;;SYNERGIPHAR;;48.8414849;2.2885912
213;PHARMACIE EMRIK;89 AVENUE DE WAGRAM;75017;PARIS;01 47 63 28 69;75TER;8;0;;1;0;0;[];;;;;268.0;0;84.0;166.0;0;84.0;166.0;0;83.63;428.75;;EXCEL PHARMA;;48.8812999;2.3002811
214;PHARMACIE CASEJUANE;256 RUE DE VAUGIRARD;75015;PARIS;01 45 32 90 90;75MNP;10;0;;1;0;0;[];;;;;860.0;0;;641.0;0;;689.0;0;0.0;420.33;;SYNERGIPHAR;CA<7500 PARTENAIRE;48.8397651;2.3015462
215;PHARMACIE AGOUDJIAN;116 BOULEVARD HAUSSMANN;75008;PARIS;01 45 22 12 35;75ELY;5;0;;0;0;0;[Timestamp('2024-02-02 10:30:00')];2023-07-24 13:00:00;;;;1543.0;101;;2646.0;28;;2681.0;32;83.63;389.16;;;;48.8749996;2.318911
216;PHARMACIE CAMBRONNE CROIX NIVERT;19 RUE DE LA CROIX NIVERT;75015;PARIS;01 47 34 70 48;75MNP;10;0;;1;0;0;[];;;;190.0;950.0;0;288.0;539.0;0;455.0;817.0;0;265.37;380.86;;SYNERGIPHAR;CA<7500 TOP24;48.8468793;2.3002328
217;PHARM DE L ARC DE TRIOMPHE;6 AVENUE VICTOR HUGO;75116;PARIS;01 45 00 53 40;75TRO;9;0;;0;0;0;[Timestamp('2023-10-10 17:00:00')];2023-10-08 17:00:00;;;;387.0;0;;493.0;0;;460.0;0;0.0;376.24;;;;48.8729083;2.292689
218;PHARMACIE CENTRALE PEREIRE;134 BOULEVARD PEREIRE;75017;PARIS;01 42 67 04 33;75PER;10;0;;0;0;0;[];;;;;407.0;0;;229.0;0;;229.0;0;0.0;364.5;;;;48.8840953;2.2951517
219;PHARMACIE GROUSSIER;153 AVENUE ACHILLE PERETTI;92200;NEUILLY SUR SEINE;01 46 24 05 17;92NEU;7;0;;0;0;0;[];;;;;;0;;;0;;;0;0.0;333.23;;ALPHEGA DIAMANT;;48.8847049;2.2671302
220;PHARMACIE DE VARENNE;87 RUE DU BAC;75007;PARIS;01 45 48 80 77;75INV;6;0;;1;0;0;[];;;;;580.0;0;;610.0;0;;366.0;0;120.53;308.28;;PHARMACTIV;CA<7500 TOP24;48.8541359;2.3239882
221;PHARMACIE YAICHE;171 AVENUE CHARLES DE GAULLE;92200;NEUILLY SUR SEINE;01 46 24 01 38;92NEU;10;3;;1;1;0;[];;;;-182.0;2047.0;62;205.0;2113.0;51;406.0;1405.0;115;601.28;299.79;;PHARMAZON;CA<7500 TOP24;48.8835868;2.2630698
222;PHARMACIE MALESHERBES;87 BOULEVARD MALESHERBES;75008;PARIS;01 45 22 18 74;75ELY;4;0;;1;0;0;[];;;;825.0;891.0;0;530.0;847.0;0;530.0;847.0;0;0.0;266.4;;EVOLUPHARM;;48.87115;2.3224978
223;PHARMACIE CHAPTAL;78 BOULEVARD DES BATIGNOLLES;75017;PARIS;01 43 87 28 58;75PER;10;0;;0;0;0;[];;;;495.0;391.0;0;;789.0;0;;596.0;0;216.72;253.34;;UNIPHARM GRAND OUEST;;48.8820618;2.3192669
224;PHARMACIE LA BIENFAISANCE;54 RUE DE LA BIENFAISANCE;75008;PARIS;01 45 63 73 26;75ELY;10;0;;0;0;0;[];;;;138.0;326.0;0;196.0;323.0;0;259.0;324.0;0;180.16;232.79;;PYXIS;;48.8766303;2.3132085
225;PHARMACIE DES MORILLONS;85 RUE DES MORILLONS;75015;PARIS;09 60 54 55 27;75VAU;10;0;;0;0;0;[];;;;;1607.0;96;;1153.0;0;;1262.0;0;0.0;227.52;;;;48.8320136;2.3041177
226;PHARMACIE PINTA;44 AVENUE CHARLES DE GAULLE;92200;NEUILLY SUR SEINE;01 46 24 15 59;92NEU;7;0;;1;0;0;[Timestamp('2023-11-20 15:30:00')];2023-11-18 15:30:00;;;334.0;367.0;0;552.0;98.0;0;217.0;47.0;0;217.43;221.42;;PHARMAZON;CA<7500 TOP24;48.8800026;2.2765518
227;PHARMACIE HOMEOPATHIQUE CENTRALE;126 RUE DE LA POMPE;75116;PARIS;01 47 27 99 08;75TRO;9;0;;0;0;0;[];;;;;224.0;0;;;0;;253.0;0;0.0;220.38;;LE GALL SANTE SERVICE;;48.8671085;2.2806322
228;PHARMACIE DE LA PLACE ST FERDINAND;2 RUE DU DEBARCADERE;75017;PARIS;01 45 74 26 03;75TER;9;0;;0;0;0;[];;;;246.0;393.0;0;268.0;498.0;0;268.0;243.0;0;228.82;216.39;;PHARMACTIV;;48.8780178;2.2875427
229;PHARMACIE VILLA CROIX NIVERT;14 VILLA CROIX NIVERT;75015;PARIS;09 81 43 21 41;75MNP;10;0;;0;0;0;[Timestamp('2023-12-06 10:00:00')];2023-12-04 10:00:00;;;100.0;106.0;0;;116.0;0;;116.0;0;0.0;189.67;;;;48.8456956;2.300052
230;PHARMACIE DARMON;134 AVENUE EMILE ZOLA;75015;PARIS;01 45 79 30 70;75GRE;10;0;;0;0;0;[Timestamp('2023-09-01 15:15:00')];2023-08-30 15:15:00;;;51.0;11.0;0;;;0;;10.0;0;0.0;175.84;;CENTRALE DES PHARMACIENS;;48.8468053;2.2928852
231;PHARMACIE MIRABEAU;65 RUE DES CEVENNES;75015;PARIS;01 40 60 09 40;75GRE;9;0;;0;0;0;[];;;;775.0;443.0;0;334.0;278.0;0;334.0;352.0;0;0.0;167.42;;CENTRALE DES PHARMACIENS;;48.8424842;2.2809907
232;PHARMACIE BOUHNIK;120 RUE DE TOCQUEVILLE;75017;PARIS;09 67 06 08 94;75PER;10;0;;0;0;0;[];;;;;162.0;0;;321.0;0;;321.0;0;0.0;162.96;;PHARMACTIV;;48.888259;2.306688
233;SELARL PHARMACIE LIHIOUEL;119 RUE CAMBRONNE;75015;PARIS;01 45 67 15 18;75MNP;10;0;;1;0;0;[];;;;334.0;47.0;0;;99.0;0;;99.0;0;0.0;158.43;;CENTRALE DES PHARMACIENS;;48.8408792;2.3040478
234;PHARMACIE DE LA CROIX D OR;85 RUE DE COURCELLES;75017;PARIS;01 47 63 53 63;75PER;10;0;;1;0;0;[];;;;;171.0;0;;120.0;0;;182.0;0;19.62;153.37;;PYXIS;;48.8798862;2.3022233
235;PHARMACIE DES PLANTES;111 RUE DE COURCELLES;75017;PARIS;01 47 63 55 99;75PER;9;0;;0;0;0;[];;;;17.0;758.0;0;21.0;789.0;0;43.0;827.0;0;84.76;152.07;;CENTRALE DES PHARMACIENS;;48.882367;2.2997296
236;PHARMACIE VAUGIRARD;245 RUE DE VAUGIRARD;75015;PARIS;01 47 83 78 88;75MNP;10;0;;0;0;0;[];;;;42.0;186.0;0;42.0;267.0;0;42.0;138.0;0;63.56;138.2;;CENTRALE DES PHARMACIENS;;48.8406234;2.3051789
237;PHARM BAPTISTE;3 PLACE BALARD;75015;PARIS;01 45 54 82 71;75GRE;10;0;;0;0;0;[];;;;21.0;56.0;0;64.0;194.0;0;64.0;138.0;0;63.56;138.2;;CENTRALE DES PHARMACIENS;;48.8369098;2.2790555
238;PHARMACIE DAHAN;37 RUE GALILEE;75116;PARIS;01 47 20 49 69;75TRO;9;0;;0;0;0;[];;;;;237.0;0;;237.0;0;;138.0;0;0.0;138.2;;CENTRALE DES PHARMACIENS;;48.8700029;2.296288
239;PHARMACIE DAHAN;106 AVENUE CHARLES DE GAULLE;92200;NEUILLY SUR SEINE;01 46 24 14 96;92NEU;9;0;;0;0;0;[];;;;;;0;;;0;;;0;0.0;138.2;;CENTRALE DES PHARMACIENS;;48.8825114;2.268668
240;PHARMACIE DU RANELAGH;85 B RUE DU RANELAGH;75016;PARIS;01 77 35 03 38;75PAS;3;0;;0;0;0;[];;;;;;0;;;0;;;0;0.0;121.89;;LAFAYETTE;;48.8552948;2.2710289
241;PHARMACIE SULTAN;214 RUE DE COURCELLES;75017;PARIS;01 71 70 63 09;75PER;10;0;;0;0;0;[];;;;702.0;285.0;0;602.0;332.0;0;;118.0;0;1731.84;118.02;;ALPHEGA DIAMANT;;48.8872307;2.295335
242;PHARMACIE SAINT AUGUSTIN;61 BOULEVARD MALESHERBES;75008;PARIS;01 45 22 16 15;75ELY;9;0;;0;0;0;[];;;;;138.0;0;;143.0;0;;112.0;0;0.0;117.69;;;;48.87115;2.3224978
243;PHARMACIE D ORSAY;6 RUE DE BELLECHASSE;75007;PARIS;01 45 51 65 16;75INV;9;0;;0;0;0;[];;;;89.0;56.0;0;173.0;114.0;0;256.0;114.0;0;167.26;113.66;;;;48.8598078;2.3242853
244;PHARMACIE HOMEOPATHIQUE LEROY;1 AVENUE DE MESSINE;75008;PARIS;01 45 62 61 49;75ELY;10;0;;0;0;0;[];;;;;20.0;0;;98.0;0;;105.0;0;0.0;97.74;;EXCEL PHARMA;;48.8756522;2.3142456
245;PHARMACIE DU 130;130 AVENUE CHARLES DE GAULLE;92200;NEUILLY SUR SEINE;01 46 24 03 17;92NEU;10;0;;0;0;0;[];;;;98.0;177.0;0;216.0;202.0;0;177.0;150.0;0;19.62;84.44;;PYXIS;;48.8833034;2.266178
246;PHARMACIE CONVENTION CROIX NIVERT;131 RUE DE LA CONVENTION;75015;PARIS;01 48 42 53 80;75GRE;5;0;;1;0;0;[];;;;;1268.0;0;;1268.0;0;;648.0;0;0.0;69.1;;PYXIS;;48.8403433;2.2899758
247;PHARMACIE DU CHAMPS DE MARS;124 RUE SAINT DOMINIQUE;75007;PARIS;01 47 05 49 30;75INV;10;0;;0;0;0;[];;;;119.0;224.0;0;78.0;350.0;0;39.0;266.0;0;0.0;68.2;;PYXIS;;48.8579072;2.3006755
248;PHARMACIE PONSARD;4 CHAUSSEE DE LA MUETTE;75016;PARIS;01 42 88 18 30;75PAS;5;0;;0;0;0;[];;;;3535.0;1540.0;102;1896.0;783.0;0;1093.0;480.0;0;0.0;0.0;;;CA<7500 PARTENAIRE;48.8582759;2.2741174
249;PHARMACIE DESNOUETTES;1 RUE DESNOUETTES;75015;PARIS;01 48 28 31 28;75VAU;6;0;;1;0;0;[];;;;669.0;1044.0;0;;1499.0;112;;1172.0;0;0.0;0.0;;WELL & WELL;;48.8360521;2.2929768
250;PHARMACIE BOIRON;64 BOULEVARD MALESHERBES;75008;PARIS;01 45 22 10 41;75ELY;8;0;;0;0;0;[];;;;432.0;587.0;0;321.0;286.0;0;85.0;201.0;0;0.0;0.0;;PYXIS;;48.87115;2.3224978
251;PHARMACIE DUFRENOY;16 B RUE DUFRENOY;75116;PARIS;01 45 04 69 87;75PAS;9;0;;0;0;0;[];;;;106.0;246.0;0;;169.0;0;;169.0;0;0.0;0.0;;;;48.8657553;2.2756749
252;PHARMACIE DU ROCHER;29 RUE DU ROCHER;75008;PARIS;01 45 22 68 61;75ELY;5;0;;0;0;0;[];;;;68.0;137.0;0;;;0;;;0;0.0;0.0;;CEIDO;;48.8770523;2.3212946
253;PHARMACIE JACQUEMINET;2 PLACE ADOLPHE CHERIOUX;75015;PARIS;01 48 28 42 60;75MNP;10;0;;1;0;0;[];;;;;1131.0;0;;762.0;0;;399.0;0;0.0;0.0;;;;48.8405725;2.3000063
254;PHARMACIE DES CHAMPS ELYSEES;84 AVENUE DES CHAMPS ELYSEES;75008;PARIS;01 45 62 02 41;75TER;5;0;;1;0;2;[];2022-05-02 00:00:00;;;;868.0;0;;447.0;0;;266.0;0;0.0;0.0;;BOTICINAL;;48.8713362;2.3038271
255;PHARMACIE CENTRALE MARCEAU;55 AVENUE MARCEAU;75116;PARIS;01 47 20 54 26;75TRO;9;0;;0;0;0;[];;;;;485.0;0;;49.0;0;;49.0;0;0.0;0.0;;;;48.869687;2.2979556
256;PHARMACIE DU FRONT DE SEINE;9 RUE DU THEATRE;75015;PARIS;01 45 79 15 43;75GRE;10;0;;0;0;0;[];;;;;260.0;0;;129.0;0;;;0;0.0;0.0;;CENTRALE DES PHARMACIENS;;48.8501417;2.28518
257;PHARMACIE DES SABLONS;85 AVENUE CHARLES DE GAULLE;92200;NEUILLY SUR SEINE;01 46 24 10 06;92NEU;9;0;;0;0;0;[Timestamp('2023-10-25 10:30:00')];2023-10-23 10:30:00;;;;170.0;0;;;0;;;0;0.0;0.0;;;;48.8803956;2.2731195
258;PHARMACIE DE LUBECK;31 RUE DE LUBECK;75116;PARIS;01 47 27 97 14;75TRO;10;0;;0;0;0;[];;;;;89.0;0;;89.0;0;;89.0;0;81.16;0.0;;PYXIS;;48.8647645;2.2914935
259;INSTITUT DU SEIN;9 AVENUE MAC MAHON;75017;PARIS;01 45 63 00 00;75TER;0;0;;0;0;0;[];;;;;;0;;;0;;;0;0.0;0.0;;;;48.8757589;2.2944545
260;CENTRE INTERDISCIPLINAIRE DU SOMMEIL;18 20 RUE SAINT SAENS;75015;PARIS;09 86 52 59 17;75GRE;0;0;;0;0;0;[];;;;;;0;;;0;;;0;0.0;0.0;;;;48.8534103;2.2914127
261;CENTRE LASER MARCEAU;57 AVENUE MARCEAU;75116;PARIS;01 44 31 66 66;75TRO;0;0;;0;0;0;[];;;;;;0;;;0;;;0;0.0;0.0;;;;48.8698146;2.2978806
262;CENTRE LASERIO;14 RUE LINCOLN;75008;PARIS;01 45 61 97 59;75ELY;0;0;;0;0;0;[];;;;;;0;;;0;;;0;0.0;0.0;;;;48.8705299;2.3031567
263;INSTITUT FRANCAIS DU SEIN;15 RUE JEAN NICOT;75007;PARIS;01 75 43 38 38;75INV;0;0;;0;0;0;[];;;;;;0;;;0;;;0;0.0;0.0;;;;48.8599655;2.3077584
264;SERVICE MEDICAL DE LA PROTECTION CIVILE PARIS SEINE;244 RUE DE VAUGIRARD;75015;PARIS;01 43 37 01 01;75MNP;0;0;;0;0;0;[];;;;;;0;;;0;;;0;0.0;0.0;;;;48.8401207;2.3028444
265;CARREFOUR;1 3 AVENUE DU GENERAL SARRAIL;75016;PARIS;01 47 43 61 79;75AUT;0;0;;0;0;0;[];;;;;;0;;;0;;;0;0.0;0.0;;;;48.8451141;2.2557115
266;SCE MEDICAL MINISTERE DEFENSE;21 PLACE JOFFRE;75007;PARIS;01 44 42 39 28;75INV;0;0;;0;0;0;[];;;;;;0;;;0;;;0;0.0;0.0;;;;48.8515374;2.3018648
267;UNESCO;7 PLACE DE FONTENOY;75007;PARIS;01 45 68 08 58;75INV;0;0;;0;0;0;[];;;;;;0;;;0;;;0;0.0;0.0;;;;48.85121965;2.306670824655578
268;SERVICE MED ASSEMBLEE NATIONALE;126 RUE DE L UNIVERSITE;75007;PARIS;01 40 63 58 26;75INV;0;0;;0;0;0;[];;;;;;0;;;0;;;0;0.0;0.0;;;;48.8608616;2.3183886
269;CAISSE NATIONALE DE PREVOYANCE;4 PLACE RAOUL DAUTRY;75015;PARIS;01 42 18 88 88;75MNP;0;0;;0;0;0;[];;;;;;0;;;0;;;0;0.0;0.0;;;;48.8414419;2.320866
270;SERVICE MEDICAL DE L ENSAAMA;63 65 RUE OLIVIER DE SERRES;75015;PARIS;01 53 68 16 90;75VAU;0;0;;0;0;0;[];;;;;;0;;;0;;;0;0.0;0.0;;;;48.8356932;2.2968142
271;CENTRE MEDICAL INSTITUT PASTEUR;209 211 RUE DE VAUGIRARD;75015;PARIS;01 40 61 38 60;75MNP;0;0;;0;0;0;[];;;;;;0;;;0;;;0;0.0;0.0;;;;48.8421594;2.3101285
272;ABSOLU SANTE CENTER;3 RUE WASHINGTON;75008;PARIS;01 42 25 68 21;75TER;0;0;;0;0;0;[];;;;;;0;;;0;;;0;0.0;0.0;;;;48.8723514;2.3016914
273;SERVICE MEDICAL FRANCE TELEVISION;7 ESPLANADE HENRI FRANCE;75015;PARIS;01 56 22 99 72;75GRE;0;0;;0;0;0;[];;;;;;0;;;0;;;0;0.0;0.0;;;;48.838804800000005;2.2712806355635786
274;SERVICE D EDUCATION SPECIALISEE ET DES SOINS A DOMICILE L ESSOR;45 RUE DES BERGERS;75015;PARIS;01 40 60 49 00;75GRE;0;0;;0;0;0;[];;;;;;0;;;0;;;0;0.0;0.0;;;;48.8423042;2.2807083
275;CENTRE LASER ALEXIS NAMIAS;34 RUE FORTUNY;75017;PARIS;01 40 54 85 35;75PER;0;0;;0;0;0;[];;;;;;0;;;0;;;0;0.0;0.0;;;;48.8825992;2.307546
276;CENTRE EPILATION LASER PREMIER;160 AVENUE CHARLES DE GAULLE;92200;NEUILLY SUR SEINE;01 46 37 54 03;92NEU;0;0;;0;0;0;[];;;;;;0;;;0;;;0;0.0;0.0;;;;48.8847041;2.2617682
277;CENTRE LASER ETOILE;17 RUE DES ACACIAS;75017;PARIS;01 45 74 12 50;75TER;0;0;;0;0;0;[];;;;;;0;;;0;;;0;0.0;0.0;;;;48.8768146;2.2913653
278;CENTRE LASER NIEL;75 AVENUE NIEL;75017;PARIS;01 44 40 48 08;75TER;0;0;;0;0;0;[];;;;;;0;;;0;;;0;0.0;0.0;;;;48.8826106;2.2960124
279;SERVICE MEDICAL ORGANISATION COOPERATION DEVELOPPEMENT ECONOMIQUE;2 RUE ANDRE PASCAL;75116;PARIS;01 45 24 83 88;75PAS;0;0;;0;0;0;[];;;;;;0;;;0;;;0;0.0;0.0;;;;48.86167375;2.2692356597225416
280;ELSAN PARTENAIRES GROUPE;87 RUE LA BOETIE;75008;PARIS;01 43 12 34 30;75TER;0;0;;0;0;0;[];;;;;;0;;;0;;;0;0.0;0.0;;;;48.8717991;2.3084727
281;SCE MEDICAL MINISTERE DEFENSE;1 PLACE JOFFRE;75007;PARIS;01 56 06 06 15;75INV;0;0;;0;0;0;[];;;;;;0;;;0;;;0;0.0;0.0;;;;48.8540234;2.3055622
282;ALFA LASER CENTRE FRANCE;8 RUE THEODULE RIBOT;75017;PARIS;01 84 17 51 14;75PER;0;0;;0;0;0;[];;;;;;0;;;0;;;0;0.0;0.0;;;;48.8794438;2.3011296
283;DHI LUTETIA;6 RUE AMPERE;75017;PARIS;01 56 90 08 25;75PER;0;0;;0;0;0;[];;;;;;0;;;0;;;0;0.0;0.0;;;;48.8852866;2.3061667
284;PARAPHARMACIE MONOPRIX RASPAIL;6 BOULEVARD RASPAIL;75007;PARIS;01 42 84 89 70;75INV;0;0;;0;0;0;[];;;;;;0;;;0;;;0;0.0;0.0;;;;48.8551446;2.3255804
285;CENTRE DU RACHIS;25 27 BOULEVARD VICTOR HUGO;92500;NEUILLY SUR SEINE;01 41 43 04 50;92NEU;0;0;;0;0;0;[];;;;;;0;;;0;;;0;0.0;0.0;;;;48.8962234;2.2724845
286;INSTITUT JEROME LEJEUNE;37 RUE DES VOLONTAIRES;75015;PARIS;01 56 58 63 00;75MNP;0;0;;0;0;0;[];;;;;;0;;;0;;;0;0.0;0.0;;;;48.8405815;2.3086819
287;MONTAIGNE SANTE;53 AVENUE MONTAIGNE;75008;PARIS;01 42 25 60 31;75ELY;0;0;;0;0;0;[];;;;;;0;;;0;;;0;0.0;0.0;;;;48.8680976;2.3079817
288;CENTRE DE REFERENCE POUR LES DEFICIENTS IMMUNITAIRES HEREDITAIRES;149 RUE DE SEVRES;75015;PARIS;01 44 49 48 24;75MNP;0;0;;0;0;0;[];;;;;;0;;;0;;;0;0.0;0.0;;;;48.846456;2.3156805
289;OFFICE FRANCAIS D IMMIGRATION ET D INTEGRATION;44 RUE BARGUE;75015;PARIS;01 53 69 53 70;75MNP;0;0;;0;0;0;[];;;;;;0;;;0;;;0;0.0;0.0;;;;48.8376489;2.3094929
290;LE MEDIATEUR DE LA REPUBLIQUE;7 RUE SAINT FLORENTIN;75008;PARIS;01 55 35 24 24;75ELY;0;0;;0;0;0;[];;;;;;0;;;0;;;0;0.0;0.0;;;;48.867096;2.3238717
291;SANTE AU TRAVAIL EUROPEAN SPACE AGENCY;8 10 RUE MARIO NIKIS;75015;PARIS;01 53 69 71 27;75INV;0;0;;0;0;0;[];;;;;;0;;;0;;;0;0.0;0.0;;;;48.8481719;2.3043934
292;CENTRE LASER INTERNATIONAL DE LA PEAU PARIS;85 AVENUE DE LA BOURDONNAIS;75007;PARIS;01 44 42 92 55;75INV;0;0;;0;0;0;[];;;;;;0;;;0;;;0;0.0;0.0;;;;48.8561332;2.3027511
293;SERVICE MEDICAL FEDERATION FRANCAISE DE GOLF;68 RUE ANATOLE FRANCE;92300;LEVALLOIS PERRET;01 41 49 77 00;92LEV;0;0;;0;0;0;[];;;;;;0;;;0;;;0;0.0;0.0;;;;48.8916578;2.285547
294;SANTE ET RETRAITE;224 BOULEVARD SAINT GERMAIN;75007;PARIS;01 53 10 12 70;75INV;0;0;;0;0;0;[];;;;;;0;;;0;;;0;0.0;0.0;;;;48.8554822;2.3275183
295;INTERNATIONAL SOS;1 ALLEE PIERRE BURELLE;92300;LEVALLOIS PERRET;01 55 63 32 32;92LEV;0;0;;0;0;0;[];;;;;;0;;;0;;;0;0.0;0.0;;;;48.896257;2.2851562
296;SERVICE MEDICAL DU MINISTERE DES AFFAIRES ETRANGERES ET EUROPEENNES;27 RUE DE LA CONVENTION;75015;PARIS;01 43 17 65 04;75GRE;0;0;;0;0;0;[];;;;;;0;;;0;;;0;0.0;0.0;;;;48.8447434;2.2801346
297;SERVICE DE SANTE DES ARMEES;14 RUE SAINT DOMINIQUE;75007;PARIS;01 42 75 73 12;75INV;0;0;;0;0;0;[];;;;;;0;;;0;;;0;0.0;0.0;;;;48.8595533;2.3192587
298;GROUPE EXPERTISE MEDICO ESTHETIQUE;230 RUE DU FAUBOURG SAINT HONORE;75008;PARIS;01 45 63 55 31;75ELY;0;0;;0;0;0;[];;;;;;0;;;0;;;0;0.0;0.0;;;;48.8760275;2.3030413
299;AGENCE DU NUMERIQUE EN SANTE;9 RUE GEORGES PITARD;75015;PARIS;01 58 45 32 50;75VAU;0;0;;0;0;0;[];;;;;;0;;;0;;;0;0.0;0.0;;;;48.835209;2.3108964
300;CENTRE LASER PRONY;91 RUE DE PRONY;75017;PARIS;01 44 29 79 80;75PER;0;0;;0;0;0;[];;;;;;0;;;0;;;0;0.0;0.0;;;;48.8840082;2.2999473
301;INSTITUT DE JAEGER;4 RUE DE GALLIERA;75116;PARIS;01 44 96 00 00;75TRO;0;0;;0;0;0;[];;;;;;0;;;0;;;0;0.0;0.0;;;;48.8654678;2.2976333
302;INSTITUT FRANCAIS D ACTION SUR LE STRESS;22 RUE DE MARIGNAN;75008;PARIS;01 53 23 09 20;75ELY;0;0;;0;0;0;[];;;;;;0;;;0;;;0;0.0;0.0;;;;48.8692473;2.3066056
303;SERVICE ETUDES MEDICALES EDF;45 RUE KLEBER;92300;LEVALLOIS PERRET;01 82 24 84 19;92LEV;0;0;;0;0;0;[];;;;;;0;;;0;;;0;0.0;0.0;;;;48.8934227;2.2822774
304;ABSOLU SANTE LASER;23 AVENUE VICTOR HUGO;75116;PARIS;01 53 75 06 55;75TRO;0;0;;0;0;0;[];;;;;;0;;;0;;;0;0.0;0.0;;;;48.8720433;2.2912338
305;PARAPHAVENIR;67 RUE BALARD;75015;PARIS;01 44 18 95 60;75GRE;0;0;;0;0;0;[];;;;;;0;;;0;;;0;0.0;0.0;;;;48.8402391;2.2781771
306;PARACITY EIFFEL;38 AVENUE DE SUFFREN;75015;PARIS;09 67 18 27 91;75GRE;0;0;;1;0;0;[];;;;;;0;;;0;;;0;0.0;0.0;;;CA<7500 STAR;48.85472;2.2950953
307;PHARMAVANCE GROUPE;54 RUE MICHEL ANGE;75016;PARIS;01 73 79 79 28;75AUT;0;0;;0;0;0;[];;;;;;0;;;0;;;0;0.0;0.0;;;;48.8439849;2.260714
308;PARAPHARMACIE EIFFEL BIR HAKEIM;2 RUE NELATON;75015;PARIS;01 45 72 05 89;75GRE;0;0;;0;0;0;[];;;;;;0;;;0;;;0;0.0;0.0;;;;48.8538854;2.288846
309;STRAIGHT;153 BOULEVARD HAUSSMANN;75008;PARIS;0n an   ;75ELY;0;0;;0;0;0;[];;;;;;0;;;0;;;0;0.0;0.0;;PARASHOP;;48.8749433;2.3106063
310;CENTRE MEDECINE ESTHETIQUE;21 23 RUE MONTROSIER;92200;NEUILLY SUR SEINE;01 77 37 59 34;92NEU;0;0;;0;0;0;[];;;;;;0;;;0;;;0;0.0;0.0;;;;48.8807715;2.2797382
311;PARAPHARMACIE;12 RUE BEAUJON;75008;PARIS;0n an   ;75TER;0;0;;0;0;0;[];;;;;;0;;;0;;;0;0.0;0.0;;;;48.8749652;2.3017857
312;MONOPRIX LES CHAMPS;107 RUE LA BOETIE;75008;PARIS;0n an   ;75TER;0;0;;0;0;0;[];;;;;;0;;;0;;;0;0.0;0.0;;;;48.8711514;2.3068221
313;SAS SOYL;6B SQUARE PETRARQUE;75116;PARIS;0n an   ;75PAS;0;0;;0;0;0;[];;;;;;0;;;0;;;0;0.0;0.0;;;;48.8613557;2.2821262
314;PHARM GAIDOZ;12 RUE DU CHEVALIER DE SAINT GEORGE;75001;PARIS;01 42 60 86 14;75ELY;10;0;;0;0;0;[];;;;;;0;;;0;;;0;0.0;0.0;;;;48.8685958;2.3251268
315;PHARMACIE MONTEUX;40 RUE DE BELLECHASSE;75007;PARIS;01 45 51 78 44;75INV;10;0;;0;0;0;[];;;;;;0;;;0;191.0;;0;381.34;0.0;;CENTRALE DES PHARMACIENS;;48.8576961;2.3222611
316;PHARMACIE VALENTIN HAUY;15 RUE VALENTIN HAUY;75015;PARIS;01 43 06 81 84;75INV;7;0;;0;0;0;[];;;;;;0;;;0;;;0;0.0;0.0;;;;48.8465655;2.3090295
317;PHARMACIE BLOMET CONVENTION;182 RUE DE LA CONVENTION;75015;PARIS;01 48 28 46 89;75VAU;10;0;;0;0;0;[];;;;;;0;;;0;;;0;0.0;0.0;;;;48.8378562;2.2948057
318;PHARMACIE MALAKOFF;138 140 AVENUE DE MALAKOFF;75116;PARIS;01 40 67 19 28;75TRO;4;0;;0;0;0;[];;;;;;0;;;0;;;0;0.0;0.0;;IPHARM;;48.8743397;2.2841387
319;PHARMACIE FRANKLIN;8 RUE DE PASSY;75016;PARIS;01 42 88 22 32;75PAS;8;0;;1;0;0;[];;;;;;0;;;0;;;0;0.0;0.0;;CENTRALE DES PHARMACIENS;;48.8584527;2.2836828
320;PHARMACIE DU DOME;33 RUE LAURISTON;75116;PARIS;09 53 23 74 75;75TRO;10;0;;0;0;0;[];;;;;;0;;;0;;;0;0.0;0.0;;;;48.8707756;2.2916093
321;PHARMACIE DE LA ROTONDE;1 RUE DE PHALSBOURG;75017;PARIS;01 45 74 05 17;75PER;7;0;;0;0;0;[];;;;;;0;;;0;;;0;0.0;0.0;;;;48.8811572;2.3089316
322;PHARMACIE HELIOPOLIS;131 AVENUE DE VILLIERS;75017;PARIS;01 43 80 87 46;75PER;10;0;;0;0;0;[];;;;;;0;;;0;;;0;0.0;0.0;;;;48.8852336;2.2938639
323;PHARMACIE PALAIS DES CONGRES;2 PLACE DE LA PORTE MAILLOT;75017;PARIS;01 40 68 24 33;75TER;10;0;;0;0;0;[];;;;;;0;;;0;;;0;0.0;0.0;;;;48.8786043;2.2832285
324;PHARMACIE MAC MAHON;14 AVENUE MAC MAHON;75017;PARIS;01 43 80 35 25;75TER;7;0;;0;0;0;[];;;;;;0;;;0;;;0;0.0;0.0;;;;48.8767308;2.2947827
325;PHARMACIE CANILLAC;122 RUE DU CHERCHE MIDI;75006;PARIS;01 47 34 88 88;75INV;10;0;;0;0;0;[];;;;;;0;;;0;;;0;0.0;0.0;;;;48.8459997;2.3198044
326;PHARMACIE DE SAXE PARIS;2 RUE LEON VAUDOYER;75007;PARIS;01 47 34 80 51;75INV;8;0;;0;0;0;[];;;;;;0;;;0;;;0;0.0;0.0;;;;48.8484097;2.3087196
327;PHARMACIE DE LA TOUR EIFFEL;24 RUE DE MONTTESSUY;75007;PARIS;01 47 05 12 59;75INV;10;0;;0;0;0;[];;;;;;0;;;0;;;0;0.0;0.0;;;;48.8593786;2.298096
328;PHARMACIE COPPOLA;41 RUE DU BAC;75007;PARIS;01 45 48 81 42;75INV;10;0;;0;0;0;[];;;;;;0;;;0;;;0;0.0;0.0;;;;48.8565218;2.3269055
329;PHARMACIE ACHOUR;10 AVENUE DE WAGRAM;75008;PARIS;01 42 27 16 97;75TER;9;0;;0;0;0;[];;;;;;0;;;0;;;0;0.0;0.0;;;;48.875702;2.2967064
330;PHARMACIE DE L ARCADE;39 RUE DE L ARCADE;75008;PARIS;01 42 66 13 28;75ELY;6;0;;0;0;0;[];;;;;;0;;;0;;;0;0.0;0.0;;SYNERGIPHAR;;48.8734658;2.3242564
331;PHARMACIE DE BERRI;48 RUE DE BERRI;75008;PARIS;01 45 63 70 67;75ELY;8;0;;0;0;0;[Timestamp('2023-08-30 16:00:00')];2023-08-28 16:00:00;;;;;0;;;0;;;0;0.0;0.0;;WELL & WELL;;48.87457;2.3081144
332;PHARMACIE SAINT CHARLES;122 RUE SAINT CHARLES;75015;PARIS;01 45 77 54 62;75GRE;9;0;;0;0;0;[];;;;;;0;;;0;;;0;0.0;0.0;;EXCEL PHARMA;;48.8443108;2.2833587
333;PHARMACIE HOMEOPATHIQUE CENTRALE RIVE GAUCHE;37 AVENUE DE LOWENDAL;75015;PARIS;01 45 67 18 08;75INV;9;0;;0;0;0;[];;;;;;0;;;0;;;0;0.0;0.0;;LE GALL SANTE SERVICE;;48.8485234;2.3028352
334;PHARMACIE DE LA QUINTINIE;44 RUE LA QUINTINIE;75015;PARIS;01 42 50 90 98;75MNP;10;0;;0;0;0;[];;;;;;0;;;0;;;0;0.0;0.0;;ALPHEGA SILVER;;48.8373162;2.3031384
335;PHARMACIE LECOURBE;5 RUE LECOURBE;75015;PARIS;01 43 06 51 32;75MNP;10;0;;0;0;0;[];;;;;;0;;;0;;;0;0.0;0.0;;;;48.8447732;2.3102547
336;PHARMACIE FAVAL;50 AVENUE DE SEGUR;75015;PARIS;01 43 06 04 94;75INV;9;0;;0;0;0;[];;;;;;0;;;0;;;0;0.0;0.0;;;;48.8471854;2.3050911
337;GRANDE PHARMACIE DE L ARRIVEE;6 RUE DE L ARRIVEE;75015;PARIS;01 45 48 61 20;75MNP;10;0;;0;0;0;[];;;;;;0;;;0;;;0;0.0;0.0;;CENTRALE DES PHARMACIENS;;48.8438161;2.3223528
338;SELAS PHARMACIE SUFFREN;82 AVENUE DE SUFFREN;75015;PARIS;01 45 67 16 66;75GRE;10;0;;1;0;0;[];;;;;;0;;;0;;;0;0.0;0.0;;;;48.8513649;2.300327
339;PHARMACIE PASSY CHERNOVIZ;13 RUE CHERNOVIZ;75016;PARIS;01 40 50 65 72;75PAS;10;0;;0;0;0;[Timestamp('2023-09-19 16:50:00')];2023-09-17 16:50:00;;;;;0;;;0;;;0;63.56;0.0;;CENTRALE DES PHARMACIENS;;48.8577086;2.2812495
340;PHARMACIE 2 M KRIEF;14 AVENUE MOZART;75016;PARIS;01 45 27 38 17;75PAS;10;0;;1;0;0;[];;;;;;0;;;0;;;0;0.0;0.0;;;;48.8572717;2.2727894
341;PHARMACIE SPINHIRNY;28 AVENUE RAYMOND POINCARE;75116;PARIS;01 47 27 35 98;75TRO;10;0;;0;0;0;[];;;;;;0;;;0;;;0;0.0;0.0;;;;48.8655104;2.2865614
342;PHARMACIE ETOILE IENA;37 RUE LA PEROUSE;75116;PARIS;01 45 00 60 66;75TRO;10;0;;0;0;0;[];;;;;;0;;;0;;;0;0.0;0.0;;;;48.8720727;2.2949073
343;PHARMACIE DU DOCTEUR BLANCHE;38 RUE DU DOCTEUR BLANCHE;75016;PARIS;01 46 47 82 90;75AUT;5;0;;0;0;0;[Timestamp('2023-09-26 16:15:00')];2023-09-24 16:15:00;;;;;0;;;0;;;0;0.0;0.0;;;;48.8538108;2.2652088
344;PHARMACIE MARCEAU;7 AVENUE MARCEAU;75116;PARIS;01 47 20 83 52;75TRO;10;0;;0;0;1;[];2022-03-09 00:00:00;;;;;0;;;0;;;0;0.0;0.0;;SYNERGIPHAR;;48.8658736;2.299456
345;PHARMACIE 24;24 AVENUE MAC MAHON;75017;PARIS;01 43 80 11 96;75TER;8;0;;0;0;0;[];;;;;;0;;;0;;;0;0.0;0.0;;;;48.8782971;2.2945156
346;PHARMACIE HAIK;42 BOULEVARD PEREIRE;75017;PARIS;01 47 63 68 60;75PER;10;0;;0;0;0;[];;;;;;0;;;0;;;0;0.0;0.0;;MAXIPHARMA;;48.88782;2.30598
347;PHARMACIE DU METRO WAGRAM;71 AVENUE DE VILLIERS;75017;PARIS;01 47 63 73 94;75PER;10;0;;0;0;0;[];;;;;;0;;;0;;;0;0.0;0.0;;;;48.8836629;2.3048246
348;PHARMACIE CARDINET COURCELLES;8 RUE CARDINET;75017;PARIS;01 45 77 21 91;75PER;8;0;;0;0;0;[];;;;;;0;;;0;;;0;0.0;0.0;;LAFAYETTE;;48.8814271;2.3018646
349;PHARMACIE DES TERNES;90 AVENUE DES TERNES;75017;PARIS;01 45 74 17 43;75TER;10;0;;0;0;0;[];;;;;;0;;;0;;;0;0.0;0.0;;;;48.8804318;2.2872068
350;PHARMACIE BONNEAU;20 B RUE ARISTIDE BRIAND;92300;LEVALLOIS PERRET;01 47 57 24 49;92LEV;10;0;;0;0;0;[];;;;;;0;;;0;;;0;0.0;0.0;;;;48.8939435;2.2918881
351;PHARMACIE CARNOT;57 RUE CARNOT;92300;LEVALLOIS PERRET;01 47 57 59 52;92LEV;10;0;;0;0;0;[];;;;;;0;;;0;;;0;0.0;0.0;;COTE PHARMA;;48.8917916;2.286584
352;PHARMACIE DE LA MAIRIE;105 AVENUE ACHILLE PERETTI;92200;NEUILLY SUR SEINE;01 46 24 03 82;92NEU;10;0;;0;0;0;[];;;;;;0;;;0;;;0;0.0;0.0;;;;48.8837653;2.2712203
353;PHARMACIE YAICHE LAZIMI;82 RUE DE LONGCHAMP;92200;NEUILLY SUR SEINE;01 46 37 43 40;92NEU;10;0;;0;0;0;[Timestamp('2023-10-25 12:30:00')];2023-10-23 12:30:00;;;;;0;;;0;;;0;0.0;0.0;;COS 500;;48.8780184;2.2517966
354;PARAPHARMACIE CONSEIL;3 RUE DE TOCQUEVILLE;75017;PARIS;01 47 63 40 02;75PER;0;0;;0;0;0;[];;;;;;0;;;0;;;0;0.0;0.0;;;;48.8821114;2.3141903
355;AUTEUIL SANTE BEAUTE;54 RUE D AUTEUIL;75016;PARIS;01 42 15 20 22;75AUT;0;0;;1;1;0;[];;;;;;0;;;0;;;0;0.0;0.0;;PHARMAZON;CA>7500 STAR PLUS COOP;48.848055;2.2625318
356;PARAPHARMACIE MONOPRIX;52 AVENUE DES CHAMPS ELYSEES;75008;PARIS;01 53 77 65 65;75TER;0;0;;0;0;0;[];;;;;;0;;;0;;;0;0.0;0.0;;MONOPRIX;;48.8704259;2.3066934
357;PARAPHARMACIE MONOPRIX;340 RUE DE VAUGIRARD;75015;PARIS;01 56 23 90 60;75VAU;0;0;;0;1;0;[];;;;;;0;;;0;;;0;0.0;0.0;;MONOPRIX;;48.8366077;2.2948629
358;MONOPRIX;19 RUE LINOIS;75015;PARIS;01 45 75 02 40;75GRE;0;0;;0;1;0;[];;;;;;0;;;0;;;0;0.0;0.0;;MONOPRIX;;48.8482786;2.2835134
359;PARAPHARMACIE MONOPRIX;2 RUE DU COMMERCE;75015;PARIS;01 45 79 94 86;75GRE;0;0;;0;1;0;[];;;;;;0;;;0;;;0;0.0;0.0;;MONOPRIX;;48.848172;2.2968904
360;EURO SANTE BEAUTE;116 RUE DE COURCELLES;75017;PARIS;01 47 63 03 50;75PER;0;0;;0;0;0;[];;;;;;0;;;0;;;0;0.0;0.0;;;;48.8804978;2.3019342
361;PARAPHARMACIE MONOPRIX;25 AVENUE DES TERNES;75017;PARIS;01 43 80 43 76;75TER;0;0;;0;1;0;[];;;;;;0;;;0;;;0;0.0;0.0;;MONOPRIX;;48.8782438;2.2952409
362;PARAPHARMACIE MONOPRIX;72 80 AVENUE CHARLES DE GAULLE;92200;NEUILLY SUR SEINE;01 47 45 24 42;92NEU;0;0;;0;1;0;[];;;;;;0;;;0;;;0;0.0;0.0;;MONOPRIX;;48.8862431;2.2566603
363;PARAPHARMACIE MONOPRIX;13 RUE DE LEVIS;75017;PARIS;01 43 87 23 60;75PER;0;0;;0;1;0;[];;;;;;0;;;0;;;0;0.0;0.0;;MONOPRIX;;48.8819387;2.3157188
364;ESPACE CITY SANTE;26 RUE D ASTORG;75008;PARIS;01 40 98 00 30;75ELY;0;0;;0;1;0;[];;;;;;0;;;0;;;0;0.0;0.0;;MONOPRIX;;48.8739267;2.3195793
365;MONOPRIX PASSY PLAZA;53 RUE DE PASSY;75016;PARIS;01 55 74 60 10;75PAS;0;0;;0;1;0;[];;;;;;0;;;0;;;0;0.0;0.0;;PARASHOP;;48.8576089;2.2796377
366;MARIONNAUD ESPACES;23 BOULEVARD DE LA MADELEINE;75001;PARIS;01 40 20 08 80;75ELY;0;0;;0;0;0;[];;;;;;0;;;0;;;0;0.0;0.0;;;;48.8692673;2.3255141
367;ENTREPOT PARAPHARMACIE MONOPRIX;104 B RUE SAINT CHARLES;75015;PARIS;0n an   ;75GRE;0;0;;0;0;0;[];;;;;;0;;;0;;;0;0.0;0.0;;;;48.8412004;2.2807961
368;MARIONNAUD ESPACES;104 AVENUE DES CHAMPS ELYSEES;75008;PARIS;01 53 96 50 00;75ELY;0;0;;0;0;0;[];;;;;;0;;;0;;;0;0.0;0.0;;;;48.8719725;2.3018362
369;PARASHOP;10 RUE DES BELLES FEUILLES;75116;PARIS;01 44 05 91 12;75TRO;0;0;;0;1;0;[];;;;;;0;;;0;;;0;0.0;0.0;;PARASHOP;;48.8661757;2.2827604
370;DUROC MEDICAL;1 RUE MAYET;75006;PARIS;01 42 73 51 27;75INV;0;0;;0;0;0;[];;;;;;0;;;0;;;0;0.0;0.0;;;;48.8472434;2.3184317
371;ESPACE CITY SANTE;18 RUE DE PASSY;75016;PARIS;01 45 20 17 52;75PAS;0;0;;0;0;0;[];;;;;;0;;;0;;;0;0.0;0.0;;;;48.8582216;2.2821508
372;PARASHOP;24 RUE DU COMMERCE;75015;PARIS;01 45 77 07 15;75GRE;0;0;;0;0;0;[];;;;;;0;;;0;;;0;0.0;0.0;;;;48.847732;2.2964109
373;LEVALLOIS MEDICAL SERVICE;18 RUE DE VILLIERS;92300;LEVALLOIS PERRET;01 41 05 01 23;92LEV;0;0;;0;0;0;[];;;;;;0;;;0;;;0;0.0;0.0;;;;48.8879125;2.2822605
374;PARASHOP;2 4 RUE HENRI BARBUSSE;92300;LEVALLOIS PERRET;01 47 37 17 41;92LEV;0;0;;0;1;0;[];;;;;;0;;;0;;;0;0.0;0.0;;PARASHOP;;48.8909778;2.2900234
375;BEAUCLER;28 30 RUE DE CHAZELLES;75017;PARIS;01 40 53 07 99;75PER;0;0;;0;0;0;[];;;;;;0;;;0;;;0;0.0;0.0;;;;48.8800921;2.3046941
376;EPILIUM;8 RUE LINCOLN;75008;PARIS;01 40 06 02 02;75ELY;0;0;;0;0;0;[];;;;;;0;;;0;;;0;0.0;0.0;;;;48.8700875;2.3027674
377;LECLERC;38 RUE D ALSACE;92300;LEVALLOIS PERRET;01 41 27 91 60;92LEV;0;0;;1;1;0;[];;;;;;0;;;0;;;0;0.0;0.0;;LECLERC;;48.89220065;2.298236674271392
378;PARACLUB;30 RUE OLIVIER DE SERRES;75015;PARIS;0n an   ;75VAU;0;0;;0;0;0;[];;;;;;0;;;0;;;0;0.0;0.0;;;;48.8357917;2.2968143
379;ENTREPOT PHARMACIE MONTPARNASSE;9 RUE ROBERT DE FLERS;75015;PARIS;01 43 20 70 22;75GRE;0;0;;0;0;0;[];;;;;;0;;;0;;;0;0.0;0.0;;;;48.8500337;2.2848564
380;ENTREPOT PARAPHARMACIE LECLERC;42 RUE D ALSACE;92300;LEVALLOIS PERRET;0n an   ;92LEV;0;0;;0;0;0;[];;;;;;0;;;0;;;0;0.0;0.0;;;;48.8930345;2.298784
381;CFEB SISLEY;16 AVENUE GEORGE V;75008;PARIS;01 49 52 35 00;75ELY;0;0;;0;0;0;[];;;;;;0;;;0;;;0;0.0;0.0;;;;48.8665441;2.3015921
382;MONOPRIX;72 AVENUE CHARLES DE GAULLE;92200;NEUILLY SUR SEINE;01 47 45 24 42;92NEU;0;0;;0;0;0;[];;;;;;0;;;0;;;0;0.0;0.0;;;;48.8816754;2.2712941
383;MONOPRIX SAINT AUGUSTIN;47 BOULEVARD MALESHERBES;75008;PARIS;01 40 98 00 30;75ELY;0;0;;0;0;0;[];;;;;;0;;;0;;;0;0.0;0.0;;;;48.8744428;2.3198981
384;TOTUM PHARMACIENS;121 AVENUE DES CHAMPS ELYSEES;75008;PARIS;01 72 71 85 86;75TRO;0;0;;0;0;0;[];;;;;;0;;;0;;;0;0.0;0.0;;;;48.8723901;2.2982916
385;GROUPE CARREFOUR;26 QUAI CHARLES PASQUA;92300;LEVALLOIS PERRET;01 55 63 39 00;92LEV;0;0;;0;0;0;[];;;;;;0;;;0;;;0;0.0;0.0;;;;48.8980609;2.2784821
386;FOLLEREAU LOGISTIQUE;33 RUE DE DANTZIG;75015;PARIS;01 48 56 60 50;75VAU;0;0;;0;0;0;[];;;;;;0;;;0;;;0;0.0;0.0;;;;48.8338207;2.2991816
387;CENTRE MEDICAL ESTHETIQUE ROOSEVELT;8 AVENUE FRANKLIN DELANO ROOSEVELT;75008;PARIS;01 46 11 50 00;75ELY;0;0;;0;0;0;[];;;;;;0;;;0;;;0;0.0;0.0;;;;48.870616;2.310222
388;HAIRSUN;16 RUE ANATOLE FRANCE;92300;LEVALLOIS PERRET;0n an   ;92LEV;0;0;;0;0;0;[];;;;;;0;;;0;;;0;0.0;0.0;;;;48.8886717;2.2882665
389;HEALTHWORKS FRANCE;6 RUE DE CASTELLANE;75008;PARIS;01 42 66 15 59;75ELY;0;0;;0;0;0;[];;;;;;0;;;0;;;0;0.0;0.0;;;;48.8723076;2.3253001
390;INSTITUT LAZERIS;45 RUE DE COURCELLES;75008;PARIS;01 40 68 97 46;75ELY;0;0;;0;0;0;[];;;;;;0;;;0;;;0;0.0;0.0;;;;48.8761646;2.3078901
391;PHARMACIE DE LA BOURDONNAIS;54 AVENUE DE LA BOURDONNAIS;75007;PARIS;01 45 51 01 51;75INV;0;0;;0;0;0;[];;;;;;0;;;0;;;0;0.0;0.0;;;;48.8563439;2.301931
